id,name,network_wikidata_uri,operator_wikidata_uri,city_wikidata_uri,address,totalDocks,availableDocks,latitude,longitude
2,2 - Metro Callao,http://www.wikidata.org/entity/Q17402113,http://www.wikidata.org/entity/Q1094755,http://www.wikidata.org/entity/Q2807,"Calle Miguel Moya nº 1,",27,15,40.4204,-3.70569
3,3 - Plaza Conde Suchil,http://www.wikidata.org/entity/Q17402113,http://www.wikidata.org/entity/Q1094755,http://www.wikidata.org/entity/Q2807,"Plaza Conde Surchill, 4 ,",19,3,40.430322,-3.707254
4,4 - Malasaña,http://www.wikidata.org/entity/Q17402113,http://www.wikidata.org/entity/Q1094755,http://www.wikidata.org/entity/Q2807,"Calle Manuela Malasaña nº 3,",27,2,40.428626,-3.7025
5,5 - Fuencarral,http://www.wikidata.org/entity/Q17402113,http://www.wikidata.org/entity/Q1094755,http://www.wikidata.org/entity/Q2807,"Calle Fuencarral nº 106,",27,4,40.428521,-3.702135
6,6 - Colegio Arquitectos,http://www.wikidata.org/entity/Q17402113,http://www.wikidata.org/entity/Q1094755,http://www.wikidata.org/entity/Q2807,"Calle Hortaleza nº 63,",19,9,40.424148,-3.698447
7,7 - Hortaleza,http://www.wikidata.org/entity/Q17402113,http://www.wikidata.org/entity/Q1094755,http://www.wikidata.org/entity/Q2807,"Calle Hortaleza nº 75,",19,18,40.425191,-3.697771
8,8 - Metro Alonso Martínez,http://www.wikidata.org/entity/Q17402113,http://www.wikidata.org/entity/Q1094755,http://www.wikidata.org/entity/Q2807,"Plaza de Alonso Martínez nº 6,",24,19,40.427868,-3.69544
9,9 - Plaza de San Miguel,http://www.wikidata.org/entity/Q17402113,http://www.wikidata.org/entity/Q1094755,http://www.wikidata.org/entity/Q2807,"Plaza de San Miguel nº 10,",24,12,40.415606,-3.709508
10,10 - Marqués de la Ensenada,http://www.wikidata.org/entity/Q17402113,http://www.wikidata.org/entity/Q1094755,http://www.wikidata.org/entity/Q2807,"Calle Marqués de la Ensenada (junto a edif, Centro Colón),",23,21,40.425403,-3.692104
11,11 - Plaza del Dos de Mayo,http://www.wikidata.org/entity/Q17402113,http://www.wikidata.org/entity/Q1094755,http://www.wikidata.org/entity/Q2807,"Calle San Andrés nº 18 - 20,",23,2,40.427,-3.7036
12,12 - San Hermenegildo,http://www.wikidata.org/entity/Q17402113,http://www.wikidata.org/entity/Q1094755,http://www.wikidata.org/entity/Q2807,"Calle San Bernardo nº 85 - 87,",27,11,40.428467,-3.706141
13,13 - Conde Duque,http://www.wikidata.org/entity/Q17402113,http://www.wikidata.org/entity/Q1094755,http://www.wikidata.org/entity/Q2807,"Calle Conde Duque nº 22,",23,3,40.4273,-3.7105
14,14 - Ventura Rodríguez,http://www.wikidata.org/entity/Q17402113,http://www.wikidata.org/entity/Q1094755,http://www.wikidata.org/entity/Q2807,"Ventura Rodríguez, 3,",27,5,40.426043,-3.713307
15,15 - Norte,http://www.wikidata.org/entity/Q17402113,http://www.wikidata.org/entity/Q1094755,http://www.wikidata.org/entity/Q2807,"Calle norte nº 10,",19,1,40.426238,-3.707445
16,16 - San Bernardo,http://www.wikidata.org/entity/Q17402113,http://www.wikidata.org/entity/Q1094755,http://www.wikidata.org/entity/Q2807,"Calle San Bernardo nº 22,",19,7,40.422937,-3.707481
17,17 - Plaza de Carlos Cambronero,http://www.wikidata.org/entity/Q17402113,http://www.wikidata.org/entity/Q1094755,http://www.wikidata.org/entity/Q2807,"Plaza de Carlos Cambronero nº 2,",23,6,40.423126,-3.704166
18,18 - Plaza de Pedro Zerolo,http://www.wikidata.org/entity/Q17402113,http://www.wikidata.org/entity/Q1094755,http://www.wikidata.org/entity/Q2807,"Plaza de Pedro Zerolo nº 20,",24,9,40.420925,-3.699678
19,19 - Prim,http://www.wikidata.org/entity/Q17402113,http://www.wikidata.org/entity/Q1094755,http://www.wikidata.org/entity/Q2807,"Calle Prim nº 4,",28,20,40.421862,-3.695498
20A,20A - Banco de España,http://www.wikidata.org/entity/Q17402113,http://www.wikidata.org/entity/Q1094755,http://www.wikidata.org/entity/Q2807,"Calle Alcalá nº 48,",27,15,40.418808,-3.695247
23,23 - Santo Domingo,http://www.wikidata.org/entity/Q17402113,http://www.wikidata.org/entity/Q1094755,http://www.wikidata.org/entity/Q2807,"Plaza de Santo Domingo nº 1,",24,6,40.42026,-3.708249
24,24 - Palacio de Oriente,http://www.wikidata.org/entity/Q17402113,http://www.wikidata.org/entity/Q1094755,http://www.wikidata.org/entity/Q2807,"Calle Carlos III nº 1,",18,12,40.417767,-3.71065
25A,25A - Plaza de Celenque A,http://www.wikidata.org/entity/Q17402113,http://www.wikidata.org/entity/Q1094755,http://www.wikidata.org/entity/Q2807,"Plaza de Celenque nº 1,",24,6,40.41737,-3.705779
25B,25B - Plaza de Celenque B,http://www.wikidata.org/entity/Q17402113,http://www.wikidata.org/entity/Q1094755,http://www.wikidata.org/entity/Q2807,"Plaza de Celenque nº 1,",24,13,40.417369,-3.705898
26,26 - Plaza de las Salesas,http://www.wikidata.org/entity/Q17402113,http://www.wikidata.org/entity/Q1094755,http://www.wikidata.org/entity/Q2807,"Plaza de las Salesas nº 2,",27,15,40.4239,-3.6945
27,27 - Huertas,http://www.wikidata.org/entity/Q17402113,http://www.wikidata.org/entity/Q1094755,http://www.wikidata.org/entity/Q2807,"Calle Jesús nº 6,",27,15,40.4133,-3.6957
28,28 - Metro Sevilla,http://www.wikidata.org/entity/Q17402113,http://www.wikidata.org/entity/Q1094755,http://www.wikidata.org/entity/Q2807,"Calle Alcalá nº 28,",18,17,40.41806,-3.698458
29,29 - Marqués de Cubas,http://www.wikidata.org/entity/Q17402113,http://www.wikidata.org/entity/Q1094755,http://www.wikidata.org/entity/Q2807,"Calle del Marqués de Cubas nº 25,",23,20,40.416384,-3.695743
30,30 - San Quintín,http://www.wikidata.org/entity/Q17402113,http://www.wikidata.org/entity/Q1094755,http://www.wikidata.org/entity/Q2807,"Calle Pavía nº 4,",27,8,40.41921,-3.711504
31,31 - Mayor,http://www.wikidata.org/entity/Q17402113,http://www.wikidata.org/entity/Q1094755,http://www.wikidata.org/entity/Q2807,"Calle Mayor nº 16,",27,18,40.416364,-3.706897
32,32 - Plaza de la Provincia,http://www.wikidata.org/entity/Q17402113,http://www.wikidata.org/entity/Q1094755,http://www.wikidata.org/entity/Q2807,"Plaza de la Provincia (esquina calle Gerona),",18,17,40.41501,-3.706103
33,33 - Puerta del Sol,http://www.wikidata.org/entity/Q17402113,http://www.wikidata.org/entity/Q1094755,http://www.wikidata.org/entity/Q2807,"Calle Carretas nº 3,",23,19,40.416587,-3.70333
34,34 - Jacinto Benavente,http://www.wikidata.org/entity/Q17402113,http://www.wikidata.org/entity/Q1094755,http://www.wikidata.org/entity/Q2807,"Plaza de Jacinto Benavente,",24,3,40.414676,-3.703683
35,35 - Plaza del Cordón,http://www.wikidata.org/entity/Q17402113,http://www.wikidata.org/entity/Q1094755,http://www.wikidata.org/entity/Q2807,"Plaza del Cordón nº1,",24,18,40.414193,-3.710329
36,36 - Plaza Ramales,http://www.wikidata.org/entity/Q17402113,http://www.wikidata.org/entity/Q1094755,http://www.wikidata.org/entity/Q2807,"Plaza de Ramales nº1,",24,14,40.4168,-3.71183
37,37 - Plaza de San Francisco,http://www.wikidata.org/entity/Q17402113,http://www.wikidata.org/entity/Q1094755,http://www.wikidata.org/entity/Q2807,"Plaza de San Francisco,",24,13,40.4108,-3.714113
38,38 - Plaza de los Carros,http://www.wikidata.org/entity/Q17402113,http://www.wikidata.org/entity/Q1094755,http://www.wikidata.org/entity/Q2807,"Carrera de San Francisco enfrente del nº 2 ,",27,17,40.411359,-3.71159
39,39 - Plaza de la Cebada,http://www.wikidata.org/entity/Q17402113,http://www.wikidata.org/entity/Q1094755,http://www.wikidata.org/entity/Q2807,"Plaza de la Cebada nº 3,",31,4,40.411274,-3.708834
40,40 - Conde de Romanones,http://www.wikidata.org/entity/Q17402113,http://www.wikidata.org/entity/Q1094755,http://www.wikidata.org/entity/Q2807,"Plaza del Conde de Romanones nº 2,",18,2,40.413778,-3.704795
41,41 - Metro Antón Martín,http://www.wikidata.org/entity/Q17402113,http://www.wikidata.org/entity/Q1094755,http://www.wikidata.org/entity/Q2807,"Calle Atocha nº 56,",19,12,40.412205,-3.699115
42,42 - Santa Isabel,http://www.wikidata.org/entity/Q17402113,http://www.wikidata.org/entity/Q1094755,http://www.wikidata.org/entity/Q2807,"Calle Santa Isabel 32,",27,0,40.410849,-3.698292
43,43 - Jesús y María,http://www.wikidata.org/entity/Q17402113,http://www.wikidata.org/entity/Q1094755,http://www.wikidata.org/entity/Q2807,"Calle Jesús y María, 38 ,",18,12,40.410039,-3.702471
44,44 - Plaza de Nelson Mandela,http://www.wikidata.org/entity/Q17402113,http://www.wikidata.org/entity/Q1094755,http://www.wikidata.org/entity/Q2807,"Plaza Nelson Mandela, 44 ,",19,1,40.409791,-3.703864
45,45 - Metro Puerta de Toledo,http://www.wikidata.org/entity/Q17402113,http://www.wikidata.org/entity/Q1094755,http://www.wikidata.org/entity/Q2807,"Puerta de Toledo 1 ,",19,9,40.406866,-3.711103
46,46 - Ribera de Curtidores,http://www.wikidata.org/entity/Q17402113,http://www.wikidata.org/entity/Q1094755,http://www.wikidata.org/entity/Q2807,"Calle Ribera de Curtidores nº 28,",27,14,40.405315,-3.707126
47,47 - Renfe/Cercanías Embajadores,http://www.wikidata.org/entity/Q17402113,http://www.wikidata.org/entity/Q1094755,http://www.wikidata.org/entity/Q2807,"Glorieta de Embajadores, 7 ,",24,11,40.404577,-3.7028
48,48 - Casa de baños Embajadores,http://www.wikidata.org/entity/Q17402113,http://www.wikidata.org/entity/Q1094755,http://www.wikidata.org/entity/Q2807,"Glorieta de Embajadores nº 7,",24,18,40.405482,-3.702057
49,49 - Casa Encendida,http://www.wikidata.org/entity/Q17402113,http://www.wikidata.org/entity/Q1094755,http://www.wikidata.org/entity/Q2807,"Ronda de Atocha nº 34,",27,12,40.406053,-3.699277
50,50 - Museo Reina Sofía,http://www.wikidata.org/entity/Q17402113,http://www.wikidata.org/entity/Q1094755,http://www.wikidata.org/entity/Q2807,"Calle de Santa Isabel (esquina con plaza del Emperador Carlos V),",24,22,40.408368,-3.693346
51,51 - Ronda de Atocha,http://www.wikidata.org/entity/Q17402113,http://www.wikidata.org/entity/Q1094755,http://www.wikidata.org/entity/Q2807,"Ronda de Atocha (esquina con Plaza del Emperador Carlos V),",27,24,40.407561,-3.69352
52,52 - Plaza de Santa Ana,http://www.wikidata.org/entity/Q17402113,http://www.wikidata.org/entity/Q1094755,http://www.wikidata.org/entity/Q2807,"Plaza de Santa Ana nº 10,",15,9,40.414423,-3.700716
53,53 - Plaza de Lavapiés,http://www.wikidata.org/entity/Q17402113,http://www.wikidata.org/entity/Q1094755,http://www.wikidata.org/entity/Q2807,"Plazuela de Ana Diosdado,",24,8,40.408309,-3.700754
54,54 - Metro Tribunal,http://www.wikidata.org/entity/Q17402113,http://www.wikidata.org/entity/Q1094755,http://www.wikidata.org/entity/Q2807,"Calle Barceló nº 9,",19,15,40.426599,-3.700393
55,55 - Plaza de San Ildefonso,http://www.wikidata.org/entity/Q17402113,http://www.wikidata.org/entity/Q1094755,http://www.wikidata.org/entity/Q2807,"Plaza de San Ildefonso nº4,",24,3,40.423976,-3.702084
56,56 - Plaza del Carmen,http://www.wikidata.org/entity/Q17402113,http://www.wikidata.org/entity/Q1094755,http://www.wikidata.org/entity/Q2807,"Plaza del Carmen nº 1,",23,14,40.418419,-3.703241
57,57 - Santa Cruz de Marcenado,http://www.wikidata.org/entity/Q17402113,http://www.wikidata.org/entity/Q1094755,http://www.wikidata.org/entity/Q2807,"Calle Santa Cruz del Marcenado nº 26,",23,18,40.429566,-3.71263
58,58 - Metro Chueca,http://www.wikidata.org/entity/Q17402113,http://www.wikidata.org/entity/Q1094755,http://www.wikidata.org/entity/Q2807,"Calle Augusto Figueroa nº 33,",27,7,40.422278,-3.697858
59,59 - Plaza de Juan Pujol,http://www.wikidata.org/entity/Q17402113,http://www.wikidata.org/entity/Q1094755,http://www.wikidata.org/entity/Q2807,"Calle Espíritu Santo nº 30,",19,4,40.42555,-3.704342
60,60 - Puerta de Alcalá,http://www.wikidata.org/entity/Q17402113,http://www.wikidata.org/entity/Q1094755,http://www.wikidata.org/entity/Q2807,"Plaza de la Independencia, s/n ,",23,10,40.419752,-3.688398
61,61 - O Donnell - Narváez,http://www.wikidata.org/entity/Q17402113,http://www.wikidata.org/entity/Q1094755,http://www.wikidata.org/entity/Q2807,"Calle O Donnell nº 30,",27,24,40.421455,-3.675314
62,62 - Hospital M. Infantil Gregorio Marañón,http://www.wikidata.org/entity/Q17402113,http://www.wikidata.org/entity/Q1094755,http://www.wikidata.org/entity/Q2807,"Calle O Donnell nº 48,",27,22,40.421315,-3.672497
63,63 - Hospital Gral. Uni. Gregorio Marañón,http://www.wikidata.org/entity/Q17402113,http://www.wikidata.org/entity/Q1094755,http://www.wikidata.org/entity/Q2807,"Calle Ibiza nº 64,",23,4,40.417924,-3.670896
65,65 - Parque del Retiro - Calle Antonio Maura,http://www.wikidata.org/entity/Q17402113,http://www.wikidata.org/entity/Q1094755,http://www.wikidata.org/entity/Q2807,"Calle Antonio Maura nº 13,",24,22,40.416701,-3.689425
67,67 - CaixaForum Madrid,http://www.wikidata.org/entity/Q17402113,http://www.wikidata.org/entity/Q1094755,http://www.wikidata.org/entity/Q2807,"Calle Almadén 26,",23,23,40.410847,-3.693225
68,68 - Espalter - Ruiz de Alarcón,http://www.wikidata.org/entity/Q17402113,http://www.wikidata.org/entity/Q1094755,http://www.wikidata.org/entity/Q2807,"Calle Espalter nº 3,",19,11,40.412769,-3.691323
69,69 - Parque del Retiro - Puerta Ángel Caído,http://www.wikidata.org/entity/Q17402113,http://www.wikidata.org/entity/Q1094755,http://www.wikidata.org/entity/Q2807,"Avenida de Alfonso XII nº 54,",27,8,40.409808,-3.688822
70,70 - Hospital Uni. Infantil Niño Jesús,http://www.wikidata.org/entity/Q17402113,http://www.wikidata.org/entity/Q1094755,http://www.wikidata.org/entity/Q2807,"Avenida de Menéndez Pelayo nº 63,",27,17,40.415382,-3.677873
71,71 - Plaza del Doctor Laguna,http://www.wikidata.org/entity/Q17402113,http://www.wikidata.org/entity/Q1094755,http://www.wikidata.org/entity/Q2807,"Calle Doce de Octubre nº 28,",23,5,40.4161,-3.6739
72,72 - Metro Sáinz de Baranda,http://www.wikidata.org/entity/Q17402113,http://www.wikidata.org/entity/Q1094755,http://www.wikidata.org/entity/Q2807,"Calle Doctor Esquerdo nº 62,",23,7,40.4159,-3.6696
73,73 - Plaza de los Astros,http://www.wikidata.org/entity/Q17402113,http://www.wikidata.org/entity/Q1094755,http://www.wikidata.org/entity/Q2807,"Calle de los Astros, nº5 ,",23,9,40.4115,-3.6687
74,74 - Parque Retiro - Jardines Cecilio Rguez,http://www.wikidata.org/entity/Q17402113,http://www.wikidata.org/entity/Q1094755,http://www.wikidata.org/entity/Q2807,"Avenida de Menéndez Pelayo nº 69,",27,20,40.412063,-3.676589
75,75 - Parque del Retiro - Plaza Mariano Cavia,http://www.wikidata.org/entity/Q17402113,http://www.wikidata.org/entity/Q1094755,http://www.wikidata.org/entity/Q2807,"Avenida Menéndez pelayo (esquina con calle Poeta Esteban Villegas),",27,9,40.408272,-3.678475
76,"76 - Avenida del Mediterráneo, 19",http://www.wikidata.org/entity/Q17402113,http://www.wikidata.org/entity/Q1094755,http://www.wikidata.org/entity/Q2807,"Avenida del Mediterráneo nº 19,",24,4,40.407271,-3.675102
77,77 - Plaza del Conde de Casal,http://www.wikidata.org/entity/Q17402113,http://www.wikidata.org/entity/Q1094755,http://www.wikidata.org/entity/Q2807,"Plaza del Conde de Casal nº 8,",18,13,40.406478,-3.670713
78,78 - Metro Pacífico,http://www.wikidata.org/entity/Q17402113,http://www.wikidata.org/entity/Q1094755,http://www.wikidata.org/entity/Q2807,"Calle Cerro de la Plata nº 4,",27,12,40.400637,-3.674524
79,79 - Metro Menéndez Pelayo,http://www.wikidata.org/entity/Q17402113,http://www.wikidata.org/entity/Q1094755,http://www.wikidata.org/entity/Q2807,"Avenida de Menéndez Pelayo nº 38,",27,8,40.40511,-3.68044
81,81 - Cuesta de Moyano,http://www.wikidata.org/entity/Q17402113,http://www.wikidata.org/entity/Q1094755,http://www.wikidata.org/entity/Q2807,"Calle Claudio Moyano, nº5 ,",24,0,40.409343,-3.691833
82,82 - Doctor Esquerdo - Metro Conde de Casal,http://www.wikidata.org/entity/Q17402113,http://www.wikidata.org/entity/Q1094755,http://www.wikidata.org/entity/Q2807,"Calle Lira, nº1 ,",23,1,40.408456,-3.669753
83,83 - Pío Baroja,http://www.wikidata.org/entity/Q17402113,http://www.wikidata.org/entity/Q1094755,http://www.wikidata.org/entity/Q2807,"Calle Pío Baroja nº8,",23,6,40.4133,-3.674479
84,84 - Biblioteca Pública Elena Fortún,http://www.wikidata.org/entity/Q17402113,http://www.wikidata.org/entity/Q1094755,http://www.wikidata.org/entity/Q2807,"Calle Doctor Esquerdo nº 191,",23,3,40.403572,-3.672482
85,85 - Parque del Retiro - Puerta de O´Donnell,http://www.wikidata.org/entity/Q17402113,http://www.wikidata.org/entity/Q1094755,http://www.wikidata.org/entity/Q2807,"Avenida de Menéndez Pelayo, 9,",27,11,40.421314,-3.679891
86,86 - Cibeles,http://www.wikidata.org/entity/Q17402113,http://www.wikidata.org/entity/Q1094755,http://www.wikidata.org/entity/Q2807,"Paseo del Prado, 1B ,",24,22,40.418652,-3.69335
87,87 - Ayala - Velázquez,http://www.wikidata.org/entity/Q17402113,http://www.wikidata.org/entity/Q1094755,http://www.wikidata.org/entity/Q2807,"Calle Ayala nº 46,",23,22,40.427736,-3.683257
88,88 - Velázquez-Padilla,http://www.wikidata.org/entity/Q17402113,http://www.wikidata.org/entity/Q1094755,http://www.wikidata.org/entity/Q2807,"Calle Velázquez, 13 ,",23,21,40.431358,-3.68383
89,89 - Ayala - Conde de Peñalver,http://www.wikidata.org/entity/Q17402113,http://www.wikidata.org/entity/Q1094755,http://www.wikidata.org/entity/Q2807,"Calle Ayala nº 104,",23,16,40.427258,-3.675202
90,90 - Metro Velázquez,http://www.wikidata.org/entity/Q17402113,http://www.wikidata.org/entity/Q1094755,http://www.wikidata.org/entity/Q2807,"Calle Goya, 20 ,",27,19,40.425149,-3.683842
91,91 - Hermosilla - General Pardiñas,http://www.wikidata.org/entity/Q17402113,http://www.wikidata.org/entity/Q1094755,http://www.wikidata.org/entity/Q2807,"Calle Hermosilla nº 71,",23,8,40.426049,-3.678628
92,92 - Claudio Coello - Hermosilla,http://www.wikidata.org/entity/Q17402113,http://www.wikidata.org/entity/Q1094755,http://www.wikidata.org/entity/Q2807,"Calle Claudio Coello, 43 ,",23,22,40.426294,-3.686546
93,93 - Plaza de Margaret Tatcher,http://www.wikidata.org/entity/Q17402113,http://www.wikidata.org/entity/Q1094755,http://www.wikidata.org/entity/Q2807,"Calle Goya (esquina calle Marqués de Zurgeña),",23,23,40.425759,-3.689336
94,94 - Estación de tren de Recoletos,http://www.wikidata.org/entity/Q17402113,http://www.wikidata.org/entity/Q1094755,http://www.wikidata.org/entity/Q2807,"Paseo de Recoletos nº 20,",23,20,40.423215,-3.690756
95,95 - Claudio Coello - Villanueva,http://www.wikidata.org/entity/Q17402113,http://www.wikidata.org/entity/Q1094755,http://www.wikidata.org/entity/Q2807,"Calle Claudio Coello nº 19,",23,22,40.422543,-3.686929
96,96 - Alcalá - Castelló,http://www.wikidata.org/entity/Q17402113,http://www.wikidata.org/entity/Q1094755,http://www.wikidata.org/entity/Q2807,"Calle Alcalá nº 111,",27,18,40.422015,-3.682205
97,97 - Metro Príncipe de Vergara,http://www.wikidata.org/entity/Q17402113,http://www.wikidata.org/entity/Q1094755,http://www.wikidata.org/entity/Q2807,"Avenida Menéndez Pelayo (esquina calle Alcalá),",27,13,40.422536,-3.680256
98,98 - Plaza de Felipe II,http://www.wikidata.org/entity/Q17402113,http://www.wikidata.org/entity/Q1094755,http://www.wikidata.org/entity/Q2807,"Calle Narváez, 3 ,",24,20,40.424132,-3.675768
99,99 - Alcántara - Hermosilla,http://www.wikidata.org/entity/Q17402113,http://www.wikidata.org/entity/Q1094755,http://www.wikidata.org/entity/Q2807,"Calle Alcántara, 4 ,",23,5,40.426039,-3.674018
100,100 - Wizink Center,http://www.wikidata.org/entity/Q17402113,http://www.wikidata.org/entity/Q1094755,http://www.wikidata.org/entity/Q2807,"Calle Goya nº 99,",27,6,40.42478,-3.67384
101,101 - Metro O Donnell,http://www.wikidata.org/entity/Q17402113,http://www.wikidata.org/entity/Q1094755,http://www.wikidata.org/entity/Q2807,"Calle Jorge Juán, 129 ,",24,18,40.423077,-3.66968
102,102 - Metro Retiro,http://www.wikidata.org/entity/Q17402113,http://www.wikidata.org/entity/Q1094755,http://www.wikidata.org/entity/Q2807,"Calle Alcalá nº 95,",23,23,40.421185,-3.684232
103,103 - Ortega y Gasset - Serrano,http://www.wikidata.org/entity/Q17402113,http://www.wikidata.org/entity/Q1094755,http://www.wikidata.org/entity/Q2807,"Calle José Ortega y Gasset, 6 ,",23,19,40.43053,-3.686744
104,104 - Castellana - Hermosilla,http://www.wikidata.org/entity/Q17402113,http://www.wikidata.org/entity/Q1094755,http://www.wikidata.org/entity/Q2807,"Paseo de la Castellana nº 4,",23,21,40.42677,-3.68958
105,"105 - Serrano, 46",http://www.wikidata.org/entity/Q17402113,http://www.wikidata.org/entity/Q1094755,http://www.wikidata.org/entity/Q2807,"Calle Serrano nº 46,",23,20,40.427083,-3.687542
106B,106B - Plaza de Colón B,http://www.wikidata.org/entity/Q17402113,http://www.wikidata.org/entity/Q1094755,http://www.wikidata.org/entity/Q2807,"Calle Serrano nº 32,",19,19,40.424776,-3.68789
107,107 - Serrano - Conde de Aranda,http://www.wikidata.org/entity/Q17402113,http://www.wikidata.org/entity/Q1094755,http://www.wikidata.org/entity/Q2807,"Calle Serrano nº 8,",23,16,40.421561,-3.688384
108,108 - Mártires Concepcionistas - Alcalá,http://www.wikidata.org/entity/Q17402113,http://www.wikidata.org/entity/Q1094755,http://www.wikidata.org/entity/Q2807,"Calle Mártires Concepcionistas nº 2,",27,18,40.427402,-3.670652
109,109 - Marqués de Salamanca,http://www.wikidata.org/entity/Q17402113,http://www.wikidata.org/entity/Q1094755,http://www.wikidata.org/entity/Q2807,"Calle José Ortega y Gasset nº 30,",23,22,40.430124,-3.681452
110,110 - Intercambiador de Moncloa,http://www.wikidata.org/entity/Q17402113,http://www.wikidata.org/entity/Q1094755,http://www.wikidata.org/entity/Q2807,"Paseo de Moret nº 1,",23,3,40.434745,-3.720102
111A,111A - Metro Moncloa A,http://www.wikidata.org/entity/Q17402113,http://www.wikidata.org/entity/Q1094755,http://www.wikidata.org/entity/Q2807,"Calle Arcipreste de Hita nº 8,",23,4,40.433603,-3.717525
111B,111B - Metro Moncloa B,http://www.wikidata.org/entity/Q17402113,http://www.wikidata.org/entity/Q1094755,http://www.wikidata.org/entity/Q2807,"Calle Arcipreste de Hita nº 12,",23,1,40.433913,-3.717743
112,112 - Paseo de Moret - Parque del Oeste,http://www.wikidata.org/entity/Q17402113,http://www.wikidata.org/entity/Q1094755,http://www.wikidata.org/entity/Q2807,"Paseo Moret, 9 ,",23,17,40.43269,-3.724736
113,113 - Teleférico Madrid - Estación Rosales,http://www.wikidata.org/entity/Q17402113,http://www.wikidata.org/entity/Q1094755,http://www.wikidata.org/entity/Q2807,"Paseo del Pintor Rosales frente al nº 38,",24,16,40.427538,-3.720726
114,114 - Quintana - Juan Álvarez de Mendizábal,http://www.wikidata.org/entity/Q17402113,http://www.wikidata.org/entity/Q1094755,http://www.wikidata.org/entity/Q2807,"Calle Quintana nº 13,",23,11,40.427838,-3.717463
115,115 - Ferraz - Templo de Debod,http://www.wikidata.org/entity/Q17402113,http://www.wikidata.org/entity/Q1094755,http://www.wikidata.org/entity/Q2807,"Paseo de Pintor Rosales (esquina Marqués de Cerralbo),",23,5,40.425315,-3.717052
116A,116A - Plaza de España - Martín de los Heros,http://www.wikidata.org/entity/Q17402113,http://www.wikidata.org/entity/Q1094755,http://www.wikidata.org/entity/Q2807,"Plaza de España nº16,",18,10,40.423679,-3.713043
116B,116B - Metro Plaza de España,http://www.wikidata.org/entity/Q17402113,http://www.wikidata.org/entity/Q1094755,http://www.wikidata.org/entity/Q2807,"Calle de los Reyes, nº10,",18,14,40.423684,-3.71046
117,117 - Altamirano  - Martín de los Heros,http://www.wikidata.org/entity/Q17402113,http://www.wikidata.org/entity/Q1094755,http://www.wikidata.org/entity/Q2807,"Calle Altamirano nº 24,",23,1,40.43098,-3.71889
118,"118 - OFICINA DEL SER, APR Y BICIREGISTRO",http://www.wikidata.org/entity/Q17402113,http://www.wikidata.org/entity/Q1094755,http://www.wikidata.org/entity/Q2807,"Calle Juan Martínez el empeciado (esquina calle Bustamante) ,",23,15,40.400781,-3.688241
119,119 - Méndez Álvaro,http://www.wikidata.org/entity/Q17402113,http://www.wikidata.org/entity/Q1094755,http://www.wikidata.org/entity/Q2807,"Calle Méndez Álvaro nº 11,",23,18,40.401291,-3.686265
120,120 - Metro Palos de la Frontera,http://www.wikidata.org/entity/Q17402113,http://www.wikidata.org/entity/Q1094755,http://www.wikidata.org/entity/Q2807,"Calle Palos de la Frontera nº 27,",27,25,40.40309,-3.694825
121,121 - Glorieta de Santa María de la Cabeza,http://www.wikidata.org/entity/Q17402113,http://www.wikidata.org/entity/Q1094755,http://www.wikidata.org/entity/Q2807,"Paseo de Santa María de la Cabeza nº 58,",27,8,40.401749,-3.698603
122,122 - Santa Engracia - Zurbarán,http://www.wikidata.org/entity/Q17402113,http://www.wikidata.org/entity/Q1094755,http://www.wikidata.org/entity/Q2807,"Calle Santa Engracia nº 14,",23,18,40.429536,-3.696366
123,123 - Metro Argüelles,http://www.wikidata.org/entity/Q17402113,http://www.wikidata.org/entity/Q1094755,http://www.wikidata.org/entity/Q2807,"Calle Guzmán el Bueno nº 2,",27,13,40.430646,-3.713341
124,124 - Metro Bilbao,http://www.wikidata.org/entity/Q17402113,http://www.wikidata.org/entity/Q1094755,http://www.wikidata.org/entity/Q2807,"Calle Manuel Silvela nº 20,",27,2,40.430969,-3.699369
125,125 - Fdez. de la Hoz - Gral. Martínez Campos,http://www.wikidata.org/entity/Q17402113,http://www.wikidata.org/entity/Q1094755,http://www.wikidata.org/entity/Q2807,"Calle Fernández de la Hoz nº 29,",27,21,40.4353,-3.6948
126,126 - General Álvarez de Castro,http://www.wikidata.org/entity/Q17402113,http://www.wikidata.org/entity/Q1094755,http://www.wikidata.org/entity/Q2807,"Calle del General Álvarez de Castro, 6 ,",27,4,40.434598,-3.701804
127,127 - Mercado Municipal de Vallehermoso,http://www.wikidata.org/entity/Q17402113,http://www.wikidata.org/entity/Q1094755,http://www.wikidata.org/entity/Q2807,"Calle Fernando el Católico nº 19,",27,3,40.433852,-3.708439
128,128 - Metro Islas Filipinas,http://www.wikidata.org/entity/Q17402113,http://www.wikidata.org/entity/Q1094755,http://www.wikidata.org/entity/Q2807,"Calle Cea Bermúdez nº 59,",27,20,40.4392,-3.7154
129,129 - Metro Alonso Cano,http://www.wikidata.org/entity/Q17402113,http://www.wikidata.org/entity/Q1094755,http://www.wikidata.org/entity/Q2807,"Calle de José Abascal, 33-35 ,",27,0,40.438387,-3.698235
130,130 - Metro Ríos Rosas,http://www.wikidata.org/entity/Q17402113,http://www.wikidata.org/entity/Q1094755,http://www.wikidata.org/entity/Q2807,"Calle de Santa Engracia, 129 ,",23,19,40.44156,-3.70164
131,131 - Plaza de Juan Zorrilla,http://www.wikidata.org/entity/Q17402113,http://www.wikidata.org/entity/Q1094755,http://www.wikidata.org/entity/Q2807,"Calle Bravo Murillo nº 44,",23,8,40.441788,-3.704031
132,132 - Glorieta de Cuatro Caminos,http://www.wikidata.org/entity/Q17402113,http://www.wikidata.org/entity/Q1094755,http://www.wikidata.org/entity/Q2807,"Calle Santa Engracia, 164 ,",27,14,40.446378,-3.703605
133,133 - Raimundo Fdez. Villaverde - Dulcinea,http://www.wikidata.org/entity/Q17402113,http://www.wikidata.org/entity/Q1094755,http://www.wikidata.org/entity/Q2807,"Calle Dulcinea, 3 ,",24,0,40.447125,-3.700167
134,134 - María de Guzmán - Agustín de Betancourt,http://www.wikidata.org/entity/Q17402113,http://www.wikidata.org/entity/Q1094755,http://www.wikidata.org/entity/Q2807,"Calle María de Guzmán nº 58,",23,2,40.444182,-3.695569
135,135 - Plaza de San Juan de la Cruz,http://www.wikidata.org/entity/Q17402113,http://www.wikidata.org/entity/Q1094755,http://www.wikidata.org/entity/Q2807,"Plaza de San Juan de la Cruz, 10 ,",23,23,40.441481,-3.692734
136,136 - Metro Nuevos Ministerios,http://www.wikidata.org/entity/Q17402113,http://www.wikidata.org/entity/Q1094755,http://www.wikidata.org/entity/Q2807,"Paseo de la Castellana nº 106,",23,21,40.445124,-3.690769
137,137 - Plaza de la República Argentina,http://www.wikidata.org/entity/Q17402113,http://www.wikidata.org/entity/Q1094755,http://www.wikidata.org/entity/Q2807,"Plaza de la republica argentina, 7 ,",24,19,40.445448,-3.685338
138,138 - Estación de tren Nuevos Ministerios,http://www.wikidata.org/entity/Q17402113,http://www.wikidata.org/entity/Q1094755,http://www.wikidata.org/entity/Q2807,"Paseo de la Castellana, 63 ,",23,13,40.445741,-3.691406
139,139 - José Gutiérrez Abascal - Castellana,http://www.wikidata.org/entity/Q17402113,http://www.wikidata.org/entity/Q1094755,http://www.wikidata.org/entity/Q2807,"Calle Pedro de Valdivia, 2 ,",24,16,40.439396,-3.690419
140,140 - Velázquez - López de Hoyos,http://www.wikidata.org/entity/Q17402113,http://www.wikidata.org/entity/Q1094755,http://www.wikidata.org/entity/Q2807,"Calle Velázquez, 134 ,",27,22,40.438757,-3.683058
141,141 - Plaza de Emilio Castelar,http://www.wikidata.org/entity/Q17402113,http://www.wikidata.org/entity/Q1094755,http://www.wikidata.org/entity/Q2807,"Paseo de la Castellana nº 43,",12,8,40.435405,-3.689392
142,142 - Bajo elevado de Eduardo Dato,http://www.wikidata.org/entity/Q17402113,http://www.wikidata.org/entity/Q1094755,http://www.wikidata.org/entity/Q2807,"Paseo de la Castellana nº 42,",23,20,40.433409,-3.687915
186,186 - General Pardiñas - Don Ramón de la Cruz,http://www.wikidata.org/entity/Q17402113,http://www.wikidata.org/entity/Q1094755,http://www.wikidata.org/entity/Q2807,"Calle General Pardiñas, 58 ,",23,13,40.42898,-3.678302
144,144 - Metro Diego de León,http://www.wikidata.org/entity/Q17402113,http://www.wikidata.org/entity/Q1094755,http://www.wikidata.org/entity/Q2807,"Calle de Juan Bravo, 51 ,",27,15,40.432408,-3.675556
145,145 - Ortega y Gasset 87,http://www.wikidata.org/entity/Q17402113,http://www.wikidata.org/entity/Q1094755,http://www.wikidata.org/entity/Q2807,"Calle Ortega y Gasset nº 87,",23,2,40.429887,-3.671282
146,"146 - María Francisca, 3",http://www.wikidata.org/entity/Q17402113,http://www.wikidata.org/entity/Q1094755,http://www.wikidata.org/entity/Q2807,"Calle de María Francisca, 3,",19,10,40.444254,-3.67885
147,147 - Doctor Arce 45,http://www.wikidata.org/entity/Q17402113,http://www.wikidata.org/entity/Q1094755,http://www.wikidata.org/entity/Q2807,"Avenida del Doctor Arce nº 45,",23,4,40.4484,-3.6794
148,148 - Serrano 210,http://www.wikidata.org/entity/Q17402113,http://www.wikidata.org/entity/Q1094755,http://www.wikidata.org/entity/Q2807,"Calle Serrano nº 210,",23,9,40.451117,-3.681397
149,149 - Plaza de Quito,http://www.wikidata.org/entity/Q17402113,http://www.wikidata.org/entity/Q1094755,http://www.wikidata.org/entity/Q2807,"Paseo de la Habana nº 42,",23,20,40.449852,-3.68793
151,151 - Orense 12,http://www.wikidata.org/entity/Q17402113,http://www.wikidata.org/entity/Q1094755,http://www.wikidata.org/entity/Q2807,"Calle Orense nº 12,",27,24,40.448812,-3.695359
152,"152 - General Perón, 4",http://www.wikidata.org/entity/Q17402113,http://www.wikidata.org/entity/Q1094755,http://www.wikidata.org/entity/Q2807,"Avenida del General Perón, 4 ,",23,3,40.4525,-3.6989
153,153 - General Perón - Poeta Joan Maragall,http://www.wikidata.org/entity/Q17402113,http://www.wikidata.org/entity/Q1094755,http://www.wikidata.org/entity/Q2807,"Avenida del General Perón, 36 ,",23,20,40.4523,-3.6936
154,154 - Orense 36,http://www.wikidata.org/entity/Q17402113,http://www.wikidata.org/entity/Q1094755,http://www.wikidata.org/entity/Q2807,"Calle Orense nº 36,",24,12,40.454846,-3.694622
155,155 - San Germán 57,http://www.wikidata.org/entity/Q17402113,http://www.wikidata.org/entity/Q1094755,http://www.wikidata.org/entity/Q2807,"Calle San Germán nº 57,",23,0,40.457334,-3.70093
156,156 - Sor Ángela de la Cruz-Paseo Castellana,http://www.wikidata.org/entity/Q17402113,http://www.wikidata.org/entity/Q1094755,http://www.wikidata.org/entity/Q2807,"Calle Sor Ángela de la Cruz nº 2,",24,21,40.459235,-3.691533
158,158 - Alberto Alcocer - Padre Damián,http://www.wikidata.org/entity/Q17402113,http://www.wikidata.org/entity/Q1094755,http://www.wikidata.org/entity/Q2807,"Avenida de Alberto Alcocer nº 22,",23,12,40.45869,-3.684625
159,159 - Paseo de la Habana 63,http://www.wikidata.org/entity/Q17402113,http://www.wikidata.org/entity/Q1094755,http://www.wikidata.org/entity/Q2807,"Paseo de la Habana nº 63,",23,13,40.454385,-3.683593
160,160 - Metro Colombia,http://www.wikidata.org/entity/Q17402113,http://www.wikidata.org/entity/Q1094755,http://www.wikidata.org/entity/Q2807,"Calle Colombia, 11 ,",24,3,40.457247,-3.676344
161,161 - Intercambiador de Príncipe Pío A,http://www.wikidata.org/entity/Q17402113,http://www.wikidata.org/entity/Q1094755,http://www.wikidata.org/entity/Q2807,"Paseo de la Florida nº 8,",27,3,40.422192,-3.722099
162,162 - Metro Pirámides,http://www.wikidata.org/entity/Q17402113,http://www.wikidata.org/entity/Q1094755,http://www.wikidata.org/entity/Q2807,"Paseo de los Olmos, 26 ,",23,13,40.403497,-3.710577
163,163 - Metro Acacias,http://www.wikidata.org/entity/Q17402113,http://www.wikidata.org/entity/Q1094755,http://www.wikidata.org/entity/Q2807,"Paseo de la Esperanza, 2A ,",19,11,40.403759,-3.706445
164,164 - Paseo de las Delicias - Tomás Bretón,http://www.wikidata.org/entity/Q17402113,http://www.wikidata.org/entity/Q1094755,http://www.wikidata.org/entity/Q2807,"Paseo de las Delicias nº 94,",27,7,40.39723,-3.69461
165,165 - Entrada Matadero - Paseo de la Chopera,http://www.wikidata.org/entity/Q17402113,http://www.wikidata.org/entity/Q1094755,http://www.wikidata.org/entity/Q2807,"Paseo de la Chopera frente 51 ,",43,12,40.392888,-3.697596
166,166 - Viaducto de Segovia,http://www.wikidata.org/entity/Q17402113,http://www.wikidata.org/entity/Q1094755,http://www.wikidata.org/entity/Q2807,"Calle Segovia nº 26,",27,15,40.413905,-3.713377
167,167 - Segovia 45,http://www.wikidata.org/entity/Q17402113,http://www.wikidata.org/entity/Q1094755,http://www.wikidata.org/entity/Q2807,"Calle Segovia nº 45,",27,9,40.413748,-3.717489
168,168 - Santa María Cabeza - Batalla del Salado,http://www.wikidata.org/entity/Q17402113,http://www.wikidata.org/entity/Q1094755,http://www.wikidata.org/entity/Q2807,"Paseo Santa María de la Cabeza frente al 30 ,",23,9,40.4046,-3.6959
169,169 - Glorieta de Pirámides,http://www.wikidata.org/entity/Q17402113,http://www.wikidata.org/entity/Q1094755,http://www.wikidata.org/entity/Q2807,"Calle Toledo nº 181,",24,22,40.401589,-3.713823
170,"170 - Paseo de la Esperanza, 21",http://www.wikidata.org/entity/Q17402113,http://www.wikidata.org/entity/Q1094755,http://www.wikidata.org/entity/Q2807,"Paseo de la Esperanza nº 21,",24,14,40.401055,-3.704396
171,171 - Embajadores-Cáceres,http://www.wikidata.org/entity/Q17402113,http://www.wikidata.org/entity/Q1094755,http://www.wikidata.org/entity/Q2807,"Calle Embajadores nº 97,",27,15,40.399701,-3.698402
172,172 - Estación de tren de Delicias,http://www.wikidata.org/entity/Q17402113,http://www.wikidata.org/entity/Q1094755,http://www.wikidata.org/entity/Q2807,"Calle Bustamante nº 3,",23,8,40.400828,-3.693493
173,173 - Paseo Esperanza - Santa María Cabeza,http://www.wikidata.org/entity/Q17402113,http://www.wikidata.org/entity/Q1094755,http://www.wikidata.org/entity/Q2807,"Paseo de la Esperanza nº 59,",24,1,40.398347,-3.702484
174,"174 - Paseo de las Yeserías, 45",http://www.wikidata.org/entity/Q17402113,http://www.wikidata.org/entity/Q1094755,http://www.wikidata.org/entity/Q2807,"Paseo de Yeserías nº 45,",27,1,40.39743,-3.706526
175,175 - Jaime el Conquistador - Divino Vallés,http://www.wikidata.org/entity/Q17402113,http://www.wikidata.org/entity/Q1094755,http://www.wikidata.org/entity/Q2807,"Calle Jaime el Conquistador nº 30,",19,2,40.396226,-3.698345
177,177 - Metro Legazpi,http://www.wikidata.org/entity/Q17402113,http://www.wikidata.org/entity/Q1094755,http://www.wikidata.org/entity/Q2807,"Calle Bolívar nº 3,",23,23,40.391447,-3.694188
178,178 - Junta Municipal Distrito de Retiro,http://www.wikidata.org/entity/Q17402113,http://www.wikidata.org/entity/Q1094755,http://www.wikidata.org/entity/Q2807,"Calle León Gil de Palacio nº 1,",24,4,40.40292,-3.678834
179,179 - Metro Puente de Vallecas,http://www.wikidata.org/entity/Q17402113,http://www.wikidata.org/entity/Q1094755,http://www.wikidata.org/entity/Q2807,"Avenida de la Albufera nº 6,",24,12,40.397927,-3.669272
180,180 - Estación Sur Méndez Álvaro B,http://www.wikidata.org/entity/Q17402113,http://www.wikidata.org/entity/Q1094755,http://www.wikidata.org/entity/Q2807,"Calle Retama (esquina con calle Acanto),",23,22,40.394042,-3.67589
181,181 - Ibiza - Narváez,http://www.wikidata.org/entity/Q17402113,http://www.wikidata.org/entity/Q1094755,http://www.wikidata.org/entity/Q2807,"Calle Ibiza nº 16,",27,6,40.418169,-3.676444
182,182 - Parque Roma,http://www.wikidata.org/entity/Q17402113,http://www.wikidata.org/entity/Q1094755,http://www.wikidata.org/entity/Q2807,"Alcalde Sainz de Baranda (esquina con calle de Juan Espladiu),",23,15,40.418667,-3.665778
183,183 - Hermosilla - Doctor Esquerdo,http://www.wikidata.org/entity/Q17402113,http://www.wikidata.org/entity/Q1094755,http://www.wikidata.org/entity/Q2807,"Calle Hermosilla, 135,",23,3,40.425635,-3.669339
184,"184 - Marqués de Zafra, 24",http://www.wikidata.org/entity/Q17402113,http://www.wikidata.org/entity/Q1094755,http://www.wikidata.org/entity/Q2807,"Paseo del Marqués Zafra, 24 ,",24,4,40.426,-3.665306
185,185 - Parque Quinta de la Fuente del Berro,http://www.wikidata.org/entity/Q17402113,http://www.wikidata.org/entity/Q1094755,http://www.wikidata.org/entity/Q2807,"Calle Sancho Dávila, 35 ,",24,7,40.425083,-3.661528
143,143 - Diego de León - General Pardiñas,http://www.wikidata.org/entity/Q17402113,http://www.wikidata.org/entity/Q1094755,http://www.wikidata.org/entity/Q2807,"Calle de Diego de León, 54 ,",23,3,40.434676,-3.67808
187,187 - Alejandro González - Alcalá,http://www.wikidata.org/entity/Q17402113,http://www.wikidata.org/entity/Q1094755,http://www.wikidata.org/entity/Q2807,"Alcala-Ventas ,",23,10,40.430133,-3.663825
188,188 - Puente de Ventas,http://www.wikidata.org/entity/Q17402113,http://www.wikidata.org/entity/Q1094755,http://www.wikidata.org/entity/Q2807,"Avenida de Daroca, 2 ,",27,16,40.431256,-3.659029
189,189 - Virgen de la Alegría,http://www.wikidata.org/entity/Q17402113,http://www.wikidata.org/entity/Q1094755,http://www.wikidata.org/entity/Q2807,"Avenida donostiarra,",23,1,40.435126,-3.655492
190,190 - Velázquez - Diego de León,http://www.wikidata.org/entity/Q17402113,http://www.wikidata.org/entity/Q1094755,http://www.wikidata.org/entity/Q2807,"Calle Velázquez, 91 ,",23,15,40.434305,-3.683375
191,191 - Metro Diego de León,http://www.wikidata.org/entity/Q17402113,http://www.wikidata.org/entity/Q1094755,http://www.wikidata.org/entity/Q2807,"Calle de Alfonso Heredia, 2 ,",19,1,40.434569,-3.674078
192,192 - Avda. de los Toreros - Fco. Silvela,http://www.wikidata.org/entity/Q17402113,http://www.wikidata.org/entity/Q1094755,http://www.wikidata.org/entity/Q2807,"Avenida de los Toreros, 3 ,",27,15,40.431826,-3.671468
193,193 - Plaza de las Ventas,http://www.wikidata.org/entity/Q17402113,http://www.wikidata.org/entity/Q1094755,http://www.wikidata.org/entity/Q2807,"Avenida De los Toreros, 49 ,",27,11,40.432472,-3.665555
194,194 - Intercambiador de Avenida de América,http://www.wikidata.org/entity/Q17402113,http://www.wikidata.org/entity/Q1094755,http://www.wikidata.org/entity/Q2807,"Calle Francisco Silvela, 87 ,",24,22,40.437264,-3.677154
195,195 - Indalecio Hernández - Mataelpino,http://www.wikidata.org/entity/Q17402113,http://www.wikidata.org/entity/Q1094755,http://www.wikidata.org/entity/Q2807,"Calle Mataelpino, 1 ,",24,22,40.439222,-3.675444
196,196 - Metro Prosperidad,http://www.wikidata.org/entity/Q17402113,http://www.wikidata.org/entity/Q1094755,http://www.wikidata.org/entity/Q2807,"Calle Suero de Quiñones, 4 ,",27,2,40.444224,-3.675222
197,197 - Parque de Berlín,http://www.wikidata.org/entity/Q17402113,http://www.wikidata.org/entity/Q1094755,http://www.wikidata.org/entity/Q2807,"Avenida de Concha Espina, 36 ,",23,9,40.451606,-3.677916
198,198 - Metro Rubén Darío,http://www.wikidata.org/entity/Q17402113,http://www.wikidata.org/entity/Q1094755,http://www.wikidata.org/entity/Q2807,"Paseo de las Castellana, 33 ,",23,21,40.432,-3.6891
199,"199 - Fernando el Católico, 61",http://www.wikidata.org/entity/Q17402113,http://www.wikidata.org/entity/Q1094755,http://www.wikidata.org/entity/Q2807,"Calle Fernando el Católico, 61 ,",27,4,40.434361,-3.714917
200,200 - Metro Quevedo,http://www.wikidata.org/entity/Q17402113,http://www.wikidata.org/entity/Q1094755,http://www.wikidata.org/entity/Q2807,"Glorieta de Quevedo, 4 ,",24,15,40.433754,-3.704579
201,201 - Metro Canal,http://www.wikidata.org/entity/Q17402113,http://www.wikidata.org/entity/Q1094755,http://www.wikidata.org/entity/Q2807,"Calle José Abascal, 2 ,",23,10,40.438694,-3.703833
202,202 - Parque de Santander,http://www.wikidata.org/entity/Q17402113,http://www.wikidata.org/entity/Q1094755,http://www.wikidata.org/entity/Q2807,"Calle de Santander, 1 ,",27,13,40.4413,-3.7083
203,203 - General Ampudia - San Francisco Sales,http://www.wikidata.org/entity/Q17402113,http://www.wikidata.org/entity/Q1094755,http://www.wikidata.org/entity/Q2807,"Calle General de Ampudia 2,",24,17,40.44175,-3.714472
204,204 - Doctor Santero - Bravo Murillo,http://www.wikidata.org/entity/Q17402113,http://www.wikidata.org/entity/Q1094755,http://www.wikidata.org/entity/Q2807,"Calle Doctor Santero, 1 ,",23,5,40.447649,-3.70404
205,205 - Metro Estrecho,http://www.wikidata.org/entity/Q17402113,http://www.wikidata.org/entity/Q1094755,http://www.wikidata.org/entity/Q2807,"Calle Navarra, 1 ,",23,3,40.4535,-3.703278
206,206 - Metro Tetuán,http://www.wikidata.org/entity/Q17402113,http://www.wikidata.org/entity/Q1094755,http://www.wikidata.org/entity/Q2807,"Calle Marqués de Viana, 3 ,",23,1,40.460747,-3.698916
207,207 - Plaza de la Remonta,http://www.wikidata.org/entity/Q17402113,http://www.wikidata.org/entity/Q1094755,http://www.wikidata.org/entity/Q2807,"Calle Azucenas, 2 ,",19,0,40.463044,-3.697335
208,208 - Intercambiador de Plaza de Castilla,http://www.wikidata.org/entity/Q17402113,http://www.wikidata.org/entity/Q1094755,http://www.wikidata.org/entity/Q2807,"Paseo de la Castellana, 216 ,",18,0,40.466281,-3.689061
209,209 - Plaza de Castilla - Fundación Canal,http://www.wikidata.org/entity/Q17402113,http://www.wikidata.org/entity/Q1094755,http://www.wikidata.org/entity/Q2807,"Plaza de Castilla, 9 ,",23,1,40.4657,-3.6887
210,210 - Calle de las Tres Cruces - Gran Vía,http://www.wikidata.org/entity/Q17402113,http://www.wikidata.org/entity/Q1094755,http://www.wikidata.org/entity/Q2807,"Calle de las Tres Cruces,",27,23,40.419652,-3.702716
211,211 - Desengaño - Valverde,http://www.wikidata.org/entity/Q17402113,http://www.wikidata.org/entity/Q1094755,http://www.wikidata.org/entity/Q2807,"Calle de el Desengaño, 4 ,",23,15,40.42059,-3.70239
212,212 - Metro Marqués de Vadillo,http://www.wikidata.org/entity/Q17402113,http://www.wikidata.org/entity/Q1094755,http://www.wikidata.org/entity/Q2807,"Glorieta Marqués de Vadillo, 9,",27,13,40.398247,-3.716591
213,213 - Glorieta de Cádiz,http://www.wikidata.org/entity/Q17402113,http://www.wikidata.org/entity/Q1094755,http://www.wikidata.org/entity/Q2807,"Calle de Antonio López, 129 ,",23,10,40.388992,-3.700225
214,214 - Condesa de Venadito - Albacete,http://www.wikidata.org/entity/Q17402113,http://www.wikidata.org/entity/Q1094755,http://www.wikidata.org/entity/Q2807,"Calle Condesa de Venadito, 2 ,",24,23,40.443432,-3.656903
215,215 - Gutierre de Cetina - Ascao,http://www.wikidata.org/entity/Q17402113,http://www.wikidata.org/entity/Q1094755,http://www.wikidata.org/entity/Q2807,"Calle Gutierre de Cetina, 77 ,",23,7,40.429588,-3.640809
216,216 - Plaza de Puerta del Ángel,http://www.wikidata.org/entity/Q17402113,http://www.wikidata.org/entity/Q1094755,http://www.wikidata.org/entity/Q2807,"Plaza Puerta del Ángel, 3 ,",27,4,40.4141,-3.72897
217,217 - Hospital Universitario La Paz,http://www.wikidata.org/entity/Q17402113,http://www.wikidata.org/entity/Q1094755,http://www.wikidata.org/entity/Q2807,"Calle Pedro Rico, 4 ,",23,20,40.480884,-3.689076
218,218 - Camino de los Vinateros A,http://www.wikidata.org/entity/Q17402113,http://www.wikidata.org/entity/Q1094755,http://www.wikidata.org/entity/Q2807,"Camino de Vinateros, 28 ,",23,6,40.410548,-3.657297
219,219 - Camino de los Vinateros B,http://www.wikidata.org/entity/Q17402113,http://www.wikidata.org/entity/Q1094755,http://www.wikidata.org/entity/Q2807,"Camino de los Vinateros, 108 ,",18,7,40.408359,-3.646734
220,220 - Plaza del Encuentro,http://www.wikidata.org/entity/Q17402113,http://www.wikidata.org/entity/Q1094755,http://www.wikidata.org/entity/Q2807,"Calle Arrollo de las Pilillas, 2 ,",24,14,40.406156,-3.651384
221,221 - Metro Pavones,http://www.wikidata.org/entity/Q17402113,http://www.wikidata.org/entity/Q1094755,http://www.wikidata.org/entity/Q2807,"Calle Hacienda de Pavones, 148 ,",23,20,40.400492,-3.634744
222,222 - Eugenio Caxes - Antonio López,http://www.wikidata.org/entity/Q17402113,http://www.wikidata.org/entity/Q1094755,http://www.wikidata.org/entity/Q2807,"Calle Eugenio Caxes, 14 ,",23,15,40.391787,-3.702679
223,223 - Ermita del Santo,http://www.wikidata.org/entity/Q17402113,http://www.wikidata.org/entity/Q1094755,http://www.wikidata.org/entity/Q2807,"Paseo de la Ermita del Santo, 48 ,",27,10,40.406448,-3.724576
224,224 - Parque de Caramuel,http://www.wikidata.org/entity/Q17402113,http://www.wikidata.org/entity/Q1094755,http://www.wikidata.org/entity/Q2807,"Calle Caramuel, 51 ,",27,3,40.409,-3.7287
225,225 - Sierra Toledana - Doctor Lozano,http://www.wikidata.org/entity/Q17402113,http://www.wikidata.org/entity/Q1094755,http://www.wikidata.org/entity/Q2807,"Calle Sierra Toledana, 33 ,",24,10,40.402506,-3.660345
226,226 - Sierra Toledana - Camino de Valderribas,http://www.wikidata.org/entity/Q17402113,http://www.wikidata.org/entity/Q1094755,http://www.wikidata.org/entity/Q2807,"Camino Valderribas, 94 ,",23,0,40.399015,-3.660777
227,227 - Arroyo del Olivar,http://www.wikidata.org/entity/Q17402113,http://www.wikidata.org/entity/Q1094755,http://www.wikidata.org/entity/Q2807,"Calle Arrollo del Olivar, 3 ,",24,0,40.39383,-3.665936
228,228 - San Delfín - Antonio López,http://www.wikidata.org/entity/Q17402113,http://www.wikidata.org/entity/Q1094755,http://www.wikidata.org/entity/Q2807,"Calle San Delfín, 10 ,",18,0,40.394406,-3.708043
229,229 - Centro Deportivo Municipal Concepción,http://www.wikidata.org/entity/Q17402113,http://www.wikidata.org/entity/Q1094755,http://www.wikidata.org/entity/Q2807,"Calle José del Hierro, 6 ,",23,0,40.436938,-3.648651
230,230 - Carlota O´Neill - Agastia,http://www.wikidata.org/entity/Q17402113,http://www.wikidata.org/entity/Q1094755,http://www.wikidata.org/entity/Q2807,"Calle Carlota O Neill, 30-32 ,",24,2,40.443679,-3.648825
231,231 - Derechos Humanos - Verdaguer y García,http://www.wikidata.org/entity/Q17402113,http://www.wikidata.org/entity/Q1094755,http://www.wikidata.org/entity/Q2807,"Calle Derechos Humanos, 14 ,",24,9,40.439828,-3.655719
232,232 - José María de Pereda - Alcalá,http://www.wikidata.org/entity/Q17402113,http://www.wikidata.org/entity/Q1094755,http://www.wikidata.org/entity/Q2807,"Calle De José Maria Pereda, 1 ,",27,15,40.432766,-3.648617
233,233 - El dragón de La Elipa,http://www.wikidata.org/entity/Q17402113,http://www.wikidata.org/entity/Q1094755,http://www.wikidata.org/entity/Q2807,"Calle Marqués de Corbera, 12 ,",24,12,40.422952,-3.655579
234,234 - Metro La Elipa,http://www.wikidata.org/entity/Q17402113,http://www.wikidata.org/entity/Q1094755,http://www.wikidata.org/entity/Q2807,"Avenida Marques de Corbera, 52 ,",24,8,40.426128,-3.651092
235,235 - Sodio - Embajadores,http://www.wikidata.org/entity/Q17402113,http://www.wikidata.org/entity/Q1094755,http://www.wikidata.org/entity/Q2807,"Calle del Sodio, 1B ,",23,11,40.389041,-3.691076
236,236 - Paseo Imperial,http://www.wikidata.org/entity/Q17402113,http://www.wikidata.org/entity/Q1094755,http://www.wikidata.org/entity/Q2807,"Paseo Imperial, 31 ,",27,21,40.407579,-3.717078
238,"238 - San Germán, 5",http://www.wikidata.org/entity/Q17402113,http://www.wikidata.org/entity/Q1094755,http://www.wikidata.org/entity/Q2807,"CalleSan Germán, 5 ,",24,22,40.456182,-3.693261
239,239 - Francos Rodríguez - José Calvo,http://www.wikidata.org/entity/Q17402113,http://www.wikidata.org/entity/Q1094755,http://www.wikidata.org/entity/Q2807,"Calle de Francos Rodríguez, 62 ,",23,3,40.456713,-3.707833
240,240 - Brasilia - Parque Breogán,http://www.wikidata.org/entity/Q17402113,http://www.wikidata.org/entity/Q1094755,http://www.wikidata.org/entity/Q2807,"Avenida De Brasilia, 9 ,",23,4,40.43666,-3.66096
241,241 - Camilo José Cela,http://www.wikidata.org/entity/Q17402113,http://www.wikidata.org/entity/Q1094755,http://www.wikidata.org/entity/Q2807,"Calle Camilo José Cela, 27,",23,2,40.4378,-3.66779
242,242 - Metro Parque de las Avenidas,http://www.wikidata.org/entity/Q17402113,http://www.wikidata.org/entity/Q1094755,http://www.wikidata.org/entity/Q2807,"Avenida De Bruselas, 56 ,",23,14,40.439513,-3.662928
243,243 - Cartagena,http://www.wikidata.org/entity/Q17402113,http://www.wikidata.org/entity/Q1094755,http://www.wikidata.org/entity/Q2807,"Calle Cartagena, 37,",23,3,40.43503,-3.67012
244,244 - Hospital Clínico San Carlos,http://www.wikidata.org/entity/Q17402113,http://www.wikidata.org/entity/Q1094755,http://www.wikidata.org/entity/Q2807,"Calle Isaac Peral, 42 ,",23,10,40.44003,-3.71757
245,245 - Galileo - Donoso Cortés,http://www.wikidata.org/entity/Q17402113,http://www.wikidata.org/entity/Q1094755,http://www.wikidata.org/entity/Q2807,"Calle Galileo, 63 ,",24,2,40.436364,-3.710138
246,246 - Metro Iglesia,http://www.wikidata.org/entity/Q17402113,http://www.wikidata.org/entity/Q1094755,http://www.wikidata.org/entity/Q2807,"Calle de Santa Engracia, 85-87 ,",27,23,40.435958,-3.699248
247,247 - Zurbano - José Abascal,http://www.wikidata.org/entity/Q17402113,http://www.wikidata.org/entity/Q1094755,http://www.wikidata.org/entity/Q2807,"Calle de Zurbano, 90 ,",23,18,40.43837,-3.69281
248,248 - Sinesio Delgado - Cuatro Torres,http://www.wikidata.org/entity/Q17402113,http://www.wikidata.org/entity/Q1094755,http://www.wikidata.org/entity/Q2807,"Calle de Sinesio Delgado, 2 ,",27,22,40.474321,-3.687997
249,249 - Castellana - Cuatro Torres,http://www.wikidata.org/entity/Q17402113,http://www.wikidata.org/entity/Q1094755,http://www.wikidata.org/entity/Q2807,"Paseo de la Castellana, 298 ,",24,23,40.479502,-3.685319
250,250 - Serrano - CSIC,http://www.wikidata.org/entity/Q17402113,http://www.wikidata.org/entity/Q1094755,http://www.wikidata.org/entity/Q2807,"Calle Serrano, 111 ,",27,16,40.440649,-3.68581
251,251 - Santa Hortensia - Corazón de María,http://www.wikidata.org/entity/Q17402113,http://www.wikidata.org/entity/Q1094755,http://www.wikidata.org/entity/Q2807,"Calle Santa Hortensia, 31 ,",23,2,40.44421,-3.66683
252,252 - Est. tren Chamartín - Clara Campoamor,http://www.wikidata.org/entity/Q17402113,http://www.wikidata.org/entity/Q1094755,http://www.wikidata.org/entity/Q2807,"Calle Agustín de Foxá, 40 ,",23,1,40.47174,-3.683969
253,253 - Doctor Fleming - Estadio S. Bernabéu,http://www.wikidata.org/entity/Q17402113,http://www.wikidata.org/entity/Q1094755,http://www.wikidata.org/entity/Q2807,"Calle del Doctor Fleming, 7 ,",19,19,40.45546,-3.68844
254,254 - Plaza del Perú,http://www.wikidata.org/entity/Q17402113,http://www.wikidata.org/entity/Q1094755,http://www.wikidata.org/entity/Q2807,"Avenida De Pio XII, 3 ,",23,6,40.461,-3.67656
255,255 - General López Pozas - Apolonio Morales,http://www.wikidata.org/entity/Q17402113,http://www.wikidata.org/entity/Q1094755,http://www.wikidata.org/entity/Q2807,"Calle General López pozas, 2 ,",23,9,40.46361,-3.685292
256,256 - Reina Victoria - Beatriz de Bobadilla,http://www.wikidata.org/entity/Q17402113,http://www.wikidata.org/entity/Q1094755,http://www.wikidata.org/entity/Q2807,"Calle Beatriz de Bobadilla, 4 ,",23,4,40.44635,-3.71383
257,257 - Ciudad Universitaria - INEF,http://www.wikidata.org/entity/Q17402113,http://www.wikidata.org/entity/Q1094755,http://www.wikidata.org/entity/Q2807,"Avenida Juan Herrera, 1 ,",23,22,40.438873,-3.730527
258,258 - Metro Ciudad Universitaria A,http://www.wikidata.org/entity/Q17402113,http://www.wikidata.org/entity/Q1094755,http://www.wikidata.org/entity/Q2807,"Ciudad Universitaria, 1 ,",24,24,40.444311,-3.726939
259,259 - Metro Ciudad Universitaria B,http://www.wikidata.org/entity/Q17402113,http://www.wikidata.org/entity/Q1094755,http://www.wikidata.org/entity/Q2807,"Ciudad Universitaria, 2 ,",19,19,40.442705,-3.726752
260,260 - Ciudad Universitaria - Fac. de Biología,http://www.wikidata.org/entity/Q17402113,http://www.wikidata.org/entity/Q1094755,http://www.wikidata.org/entity/Q2807,"Facultad de Biología,",24,20,40.448332,-3.727295
261,261 - Ciudad Universitaria - Facultad Derecho,http://www.wikidata.org/entity/Q17402113,http://www.wikidata.org/entity/Q1094755,http://www.wikidata.org/entity/Q2807,"Avenida Complutense, 21 ,",23,23,40.450552,-3.729676
384,384 - Metro Usera,http://www.wikidata.org/entity/Q17402113,http://www.wikidata.org/entity/Q1094755,http://www.wikidata.org/entity/Q2807,"Calle Amparo Usera, 46 ,",23,22,40.387075,-3.706145
388,388 - Estación tren - Hospital 12 de Octubre,http://www.wikidata.org/entity/Q17402113,http://www.wikidata.org/entity/Q1094755,http://www.wikidata.org/entity/Q2807,"Calle Doctor Tolosa Latour, 7 ,",23,13,40.37838,-3.700415
385,385 - Estación de tren Orcasitas,http://www.wikidata.org/entity/Q17402113,http://www.wikidata.org/entity/Q1094755,http://www.wikidata.org/entity/Q2807,"Calle Campotejar , 25,",23,12,40.367211,-3.703887
387,"387 - Isabelita Usera, 44",http://www.wikidata.org/entity/Q17402113,http://www.wikidata.org/entity/Q1094755,http://www.wikidata.org/entity/Q2807,"Calle Isabelita Usera, 44 ,",23,10,40.382723,-3.70774
383,383 - Metro San Fermín-Orcasur,http://www.wikidata.org/entity/Q17402113,http://www.wikidata.org/entity/Q1094755,http://www.wikidata.org/entity/Q2807,"Avenida de la Perla, 35,",23,20,40.370002,-3.69397
386,"386 - Avenida de los Poblados, 130",http://www.wikidata.org/entity/Q17402113,http://www.wikidata.org/entity/Q1094755,http://www.wikidata.org/entity/Q2807,"Avenida de los Poblados, 130,",23,11,40.373474,-3.713315
476,476 - Metro Avenida de la Paz,http://www.wikidata.org/entity/Q17402113,http://www.wikidata.org/entity/Q1094755,http://www.wikidata.org/entity/Q2807,"Avenida Ramon y Cajal, 101,",23,2,40.453493,-3.662016
477,477 - Metro Ciudad Lineal,http://www.wikidata.org/entity/Q17402113,http://www.wikidata.org/entity/Q1094755,http://www.wikidata.org/entity/Q2807,"Calle de los Misterios, 2 ,",23,4,40.438278,-3.638904
478,478 - José del Hierro - Misterios,http://www.wikidata.org/entity/Q17402113,http://www.wikidata.org/entity/Q1094755,http://www.wikidata.org/entity/Q2807,"Calle José del Hierro esquina con Arturo Soria ,",23,1,40.441521,-3.641057
479,479 - Metro Arturo Soria,http://www.wikidata.org/entity/Q17402113,http://www.wikidata.org/entity/Q1094755,http://www.wikidata.org/entity/Q2807,"Angel Muñoz, 1,",27,15,40.454784,-3.655837
480,480 - Vicente Muzas - Arturo Soria,http://www.wikidata.org/entity/Q17402113,http://www.wikidata.org/entity/Q1094755,http://www.wikidata.org/entity/Q2807,"Calle Vicente Muzas, 13 ,",23,8,40.459033,-3.660443
481,481 - Diego Ayllón - Arturo Soria,http://www.wikidata.org/entity/Q17402113,http://www.wikidata.org/entity/Q1094755,http://www.wikidata.org/entity/Q2807,"Diego Ayllon, 2,",23,4,40.451179,-3.652191
554,554 - Metro El Capricho,http://www.wikidata.org/entity/Q17402113,http://www.wikidata.org/entity/Q1094755,http://www.wikidata.org/entity/Q2807,"Calle de Velero, 16 ,Comunidad de Madrid España",27,2,40.453,-3.5941
284,"284 - Avenida de Burgos, 17",http://www.wikidata.org/entity/Q17402113,http://www.wikidata.org/entity/Q1094755,http://www.wikidata.org/entity/Q2807,"Avda. de Burgos, 17 ,",23,8,40.473594,-3.67579
482,482 - Metro Pueblo Nuevo,http://www.wikidata.org/entity/Q17402113,http://www.wikidata.org/entity/Q1094755,http://www.wikidata.org/entity/Q2807,"Campuzano, 1,",23,3,40.435687,-3.642339
483,483 - Marcelino Álvarez - Daroca,http://www.wikidata.org/entity/Q17402113,http://www.wikidata.org/entity/Q1094755,http://www.wikidata.org/entity/Q2807,"Calle Marcelino Álvarez, 31 ,",23,10,40.429743,-3.653432
484,484 - Metro García Noblejas,http://www.wikidata.org/entity/Q17402113,http://www.wikidata.org/entity/Q1094755,http://www.wikidata.org/entity/Q2807,"Calle Luis Campos, 3,",23,18,40.428931,-3.632389
523,523 - Carretera de Canillas,http://www.wikidata.org/entity/Q17402113,http://www.wikidata.org/entity/Q1094755,http://www.wikidata.org/entity/Q2807,"Calle carretera de canillas, 17 ,",23,11,40.46287,-3.650893
285,285 - Santa María Magdalena - La Drácena,http://www.wikidata.org/entity/Q17402113,http://www.wikidata.org/entity/Q1094755,http://www.wikidata.org/entity/Q2807,"Calle Santa María Magdalena, 15 ,",23,19,40.4631,-3.6706
286,286 - Plaza Duque de Pastrana,http://www.wikidata.org/entity/Q17402113,http://www.wikidata.org/entity/Q1094755,http://www.wikidata.org/entity/Q2807,"Plaza Duque de Pastrana, 2 ,",23,7,40.4679,-3.6779
287,287 - Metro Bambú,http://www.wikidata.org/entity/Q17402113,http://www.wikidata.org/entity/Q1094755,http://www.wikidata.org/entity/Q2807,"Calle de la Yuca, 1,",23,12,40.4765,-3.6762
288,288 - Caídos de la División Azul,http://www.wikidata.org/entity/Q17402113,http://www.wikidata.org/entity/Q1094755,http://www.wikidata.org/entity/Q2807,"Calle Caídos de la División Azul, 28 ,",23,18,40.4664,-3.6723
524,524 - Glorieta Luis Rosales,http://www.wikidata.org/entity/Q17402113,http://www.wikidata.org/entity/Q1094755,http://www.wikidata.org/entity/Q2807,"Glorieta de Luís Rosales (esquina con López De Hoyos) ,",23,9,40.4673,-3.6543
460,460 - Fuente Carrantona - Doctor García Tapia,http://www.wikidata.org/entity/Q17402113,http://www.wikidata.org/entity/Q1094755,http://www.wikidata.org/entity/Q2807,"Fuente Carrantona , 33,",27,4,40.407022,-3.631923
455,"455 - Luis de Hoyos Sainz,  198",http://www.wikidata.org/entity/Q17402113,http://www.wikidata.org/entity/Q1094755,http://www.wikidata.org/entity/Q2807,"Luis de Hoyos Sainz, 198,",23,6,40.400094,-3.629275
456,"456 - Encomienda de Palacios, 8",http://www.wikidata.org/entity/Q17402113,http://www.wikidata.org/entity/Q1094755,http://www.wikidata.org/entity/Q2807,"Encomienda de Palacios, 8,",23,4,40.4005,-3.6464
416,416 - Ramírez Tomé,http://www.wikidata.org/entity/Q17402113,http://www.wikidata.org/entity/Q1094755,http://www.wikidata.org/entity/Q2807,"Calle Ramirez Tomé, 33 ,",27,2,40.388756,-3.645974
417,"417 - Romeo y Julieta, 12",http://www.wikidata.org/entity/Q17402113,http://www.wikidata.org/entity/Q1094755,http://www.wikidata.org/entity/Q2807,"Calle Romeo y Julieta, 12 ,",27,10,40.378738,-3.662176
418,418 - Puerto de Arlabán - San Diego,http://www.wikidata.org/entity/Q17402113,http://www.wikidata.org/entity/Q1094755,http://www.wikidata.org/entity/Q2807,"Calle Puerto de Arlabán, 83 ,",27,3,40.3864,-3.6675
496,496 - Cronos,http://www.wikidata.org/entity/Q17402113,http://www.wikidata.org/entity/Q1094755,http://www.wikidata.org/entity/Q2807,"Calle Cronos, 57 ,",27,26,40.438469,-3.619433
501,501 - Metro Alsacia,http://www.wikidata.org/entity/Q17402113,http://www.wikidata.org/entity/Q1094755,http://www.wikidata.org/entity/Q2807,"Calle Hermanos García Noblejas, 137 ,",23,8,40.4191,-3.6242
498,498 - Metro Torre Arias,http://www.wikidata.org/entity/Q17402113,http://www.wikidata.org/entity/Q1094755,http://www.wikidata.org/entity/Q2807,"Calle Alcalá, 546,",27,12,40.443134,-3.617832
499,499 - Biblioteca Pública Municipal Canillejas,http://www.wikidata.org/entity/Q17402113,http://www.wikidata.org/entity/Q1094755,http://www.wikidata.org/entity/Q2807,"Calle Alcala, 590,",23,1,40.446656,-3.6122
500,"500 - Aracne, 17",http://www.wikidata.org/entity/Q17402113,http://www.wikidata.org/entity/Q1094755,http://www.wikidata.org/entity/Q2807,"Calle Aracne, 17,",27,2,40.445,-3.5895
497,497 - Metro Suances,http://www.wikidata.org/entity/Q17402113,http://www.wikidata.org/entity/Q1094755,http://www.wikidata.org/entity/Q2807,"Calle Alcalá, 506,",23,22,40.4407,-3.6274
265,265 - Puerto Serrano - Embajadores,http://www.wikidata.org/entity/Q17402113,http://www.wikidata.org/entity/Q1094755,http://www.wikidata.org/entity/Q2807,"Calle Puerto Serrano, 1 enfrente del nº 6 ,",23,2,40.385412,-3.688461
351,351 - Comandante Fontanes - General Ricardos,http://www.wikidata.org/entity/Q17402113,http://www.wikidata.org/entity/Q1094755,http://www.wikidata.org/entity/Q2807,"Calle Comandante Fontanés, 1 ,",23,5,40.395142,-3.721121
350,350 - Ervigio - Amalarico,http://www.wikidata.org/entity/Q17402113,http://www.wikidata.org/entity/Q1094755,http://www.wikidata.org/entity/Q2807,"Calle Ervigio, 22 ,",23,9,40.3947,-3.7315
389,389 - Julio Merino - Pilarica,http://www.wikidata.org/entity/Q17402113,http://www.wikidata.org/entity/Q1094755,http://www.wikidata.org/entity/Q2807,"Calle Julio Merino, 5 ,",23,6,40.3831,-3.7032
390,390 - Avena - Mijo,http://www.wikidata.org/entity/Q17402113,http://www.wikidata.org/entity/Q1094755,http://www.wikidata.org/entity/Q2807,"Calle avena, 10 ,",23,15,40.3773,-3.7159
556,"556 - Cantabria, 6",http://www.wikidata.org/entity/Q17402113,http://www.wikidata.org/entity/Q1094755,http://www.wikidata.org/entity/Q2807,"Avenida de Cantabria, 6,",24,11,40.454625,-3.587722
555,555 - Parque del Capricho,http://www.wikidata.org/entity/Q17402113,http://www.wikidata.org/entity/Q1094755,http://www.wikidata.org/entity/Q2807,"Paseo de la Alameda de Osuna, 48,",27,13,40.454768,-3.598122
485,485 - Francisco Villaespesa - Ledesma,http://www.wikidata.org/entity/Q17402113,http://www.wikidata.org/entity/Q1094755,http://www.wikidata.org/entity/Q2807,"Calle Francisco Villaespesa, 37 ,",23,8,40.429326,-3.646463
570,570 - Uni. Autónoma Madrid - Facul. Medicina,http://www.wikidata.org/entity/Q17402113,http://www.wikidata.org/entity/Q1094755,http://www.wikidata.org/entity/Q2807,"Calle Arzobispo Morcillo, 6,",27,9,40.4815,-3.6938
295,295 - Hernani - Edgar Neville,http://www.wikidata.org/entity/Q17402113,http://www.wikidata.org/entity/Q1094755,http://www.wikidata.org/entity/Q2807,"Calle Hernani, 59 ,",23,23,40.4481,-3.6972
296,296 - Costa Verde,http://www.wikidata.org/entity/Q17402113,http://www.wikidata.org/entity/Q1094755,http://www.wikidata.org/entity/Q2807,"Calle de la Costa Verde, 25-23 ,",23,8,40.469477,-3.696862
297,297 - Simancas - Pinos Alta,http://www.wikidata.org/entity/Q17402113,http://www.wikidata.org/entity/Q1094755,http://www.wikidata.org/entity/Q2807,"Calle Simancas, 2,",23,2,40.4655,-3.695113
323,323 - Centro Deportivo Municipal Gallur,http://www.wikidata.org/entity/Q17402113,http://www.wikidata.org/entity/Q1094755,http://www.wikidata.org/entity/Q2807,"Calle Gallur, 5,",23,2,40.3984,-3.7359
324,324 - Metro Lucero,http://www.wikidata.org/entity/Q17402113,http://www.wikidata.org/entity/Q1094755,http://www.wikidata.org/entity/Q2807,"Calle de las Higueras, 49,",23,17,40.404571,-3.745096
457,"457 - Hacienda de Pavones, 148",http://www.wikidata.org/entity/Q17402113,http://www.wikidata.org/entity/Q1094755,http://www.wikidata.org/entity/Q2807,"Hacienda de Pavones, 148,",23,5,40.4026,-3.6419
432,432 - Maquinilla - Tranvía Blanco,http://www.wikidata.org/entity/Q17402113,http://www.wikidata.org/entity/Q1094755,http://www.wikidata.org/entity/Q2807,"Calle de la Maquinilla, 8-10 ,",24,17,40.380781,-3.636484
298,298 - Marques de Viana - Bellver,http://www.wikidata.org/entity/Q17402113,http://www.wikidata.org/entity/Q1094755,http://www.wikidata.org/entity/Q2807,"Calle Marqués de Viana, 85 ,",19,0,40.463643,-3.704478
437,437 - Metro Sierra de Guadalupe,http://www.wikidata.org/entity/Q17402113,http://www.wikidata.org/entity/Q1094755,http://www.wikidata.org/entity/Q2807,"Calle Sierra de Guadalupe, 11 ,",27,4,40.381352,-3.623765
358,358 - Verdad,http://www.wikidata.org/entity/Q17402113,http://www.wikidata.org/entity/Q1094755,http://www.wikidata.org/entity/Q2807,"Calle de la Verdad, 29,",23,18,40.391787,-3.71716
352,352 - Algorta  - General Ricardos,http://www.wikidata.org/entity/Q17402113,http://www.wikidata.org/entity/Q1094755,http://www.wikidata.org/entity/Q2807,"Calle Algorta, 2,",23,14,40.391623,-3.727452
492,492 - Metro La Almudena,http://www.wikidata.org/entity/Q17402113,http://www.wikidata.org/entity/Q1094755,http://www.wikidata.org/entity/Q2807,"Fernando Gabriel, 2 ,",24,1,40.424664,-3.639499
322,322 - Ps. Jesuitas - Mercado Alto Extremadura,http://www.wikidata.org/entity/Q17402113,http://www.wikidata.org/entity/Q1094755,http://www.wikidata.org/entity/Q2807,"Paseo de los Jesuitas, 69 ,",27,2,40.408,-3.7351
392,392 - Metro Almendrales,http://www.wikidata.org/entity/Q17402113,http://www.wikidata.org/entity/Q1094755,http://www.wikidata.org/entity/Q2807,"Avenida Córdoba, enfrente nº 21 ,",23,21,40.38268,-3.697856
420,"420 - Candilejas, 5",http://www.wikidata.org/entity/Q17402113,http://www.wikidata.org/entity/Q1094755,http://www.wikidata.org/entity/Q2807,"Calle Candilejas, 5 ,",23,19,40.382636,-3.663004
419,419 - Estación de tren de El Pozo,http://www.wikidata.org/entity/Q17402113,http://www.wikidata.org/entity/Q1094755,http://www.wikidata.org/entity/Q2807,"Calle Puerto de Balbarán, 10,",27,17,40.376237,-3.655868
439,439 - Cabeza Mesada - Parque de Valdeperdices,http://www.wikidata.org/entity/Q17402113,http://www.wikidata.org/entity/Q1094755,http://www.wikidata.org/entity/Q2807,"Calle Cabeza de Mesada, 5,",27,15,40.376479,-3.629413
398,398 - Orovilla - Felicidad,http://www.wikidata.org/entity/Q17402113,http://www.wikidata.org/entity/Q1094755,http://www.wikidata.org/entity/Q2807,"Avenida de Orovilla, 53,",27,23,40.3587,-3.6895
569,569 - C. Deportivo Mpal. Vicente del Bosque,http://www.wikidata.org/entity/Q17402113,http://www.wikidata.org/entity/Q1094755,http://www.wikidata.org/entity/Q2807,"Avenida Monforte de Lemos, 13 ,",23,16,40.4795,-3.6965
571,571 - Melchor Fernández Almagro - Plaza Tuy,http://www.wikidata.org/entity/Q17402113,http://www.wikidata.org/entity/Q1094755,http://www.wikidata.org/entity/Q2807,"Calle Melchor Fernandez Almagro, 80,",23,16,40.475648,-3.710326
304,"304 - Valle de Mena, 5",http://www.wikidata.org/entity/Q17402113,http://www.wikidata.org/entity/Q1094755,http://www.wikidata.org/entity/Q2807,"Calle Valle de Mena, 5,",23,2,40.469627,-3.715272
268,268 - Metro Arganzuela-Planetario,http://www.wikidata.org/entity/Q17402113,http://www.wikidata.org/entity/Q1094755,http://www.wikidata.org/entity/Q2807,"Calle del Cobre, 6 ,",23,17,40.393383,-3.689031
305,305 - Intercambiador de Príncipe Pío B,http://www.wikidata.org/entity/Q17402113,http://www.wikidata.org/entity/Q1094755,http://www.wikidata.org/entity/Q2807,"Paseo de la Florida, 37,",23,10,40.422761,-3.723178
306,306 - Centro Deportivo Mpal Fernando Martín,http://www.wikidata.org/entity/Q17402113,http://www.wikidata.org/entity/Q1094755,http://www.wikidata.org/entity/Q2807,"Avenida Del Santo Ángel de la Guarda, 6 ,",23,2,40.461796,-3.712197
486,486 - Serrano Galvache - Arturo Soria,http://www.wikidata.org/entity/Q17402113,http://www.wikidata.org/entity/Q1094755,http://www.wikidata.org/entity/Q2807,"Calle Serrano Galvache 1,",23,18,40.471382,-3.667938
502,502 - Puertollano - Veinticinco de Septiembre,http://www.wikidata.org/entity/Q17402113,http://www.wikidata.org/entity/Q1094755,http://www.wikidata.org/entity/Q2807,"Calle de Puertollano, 4-2 ,",23,18,40.442516,-3.623737
462,462 - Gallegos - Lavadero Viejo,http://www.wikidata.org/entity/Q17402113,http://www.wikidata.org/entity/Q1094755,http://www.wikidata.org/entity/Q2807,"Calle Gallegos 27,",27,16,40.402404,-3.610275
421,421 - Arroyo del Olivar - Buenos Aires,http://www.wikidata.org/entity/Q17402113,http://www.wikidata.org/entity/Q1094755,http://www.wikidata.org/entity/Q2807,"Calle Arroyo del Olivar, 63,",24,2,40.388435,-3.653269
487,487 - Manuel Uribe - Arturo Soria,http://www.wikidata.org/entity/Q17402113,http://www.wikidata.org/entity/Q1094755,http://www.wikidata.org/entity/Q2807,"Calle Manuel Uribe, 1,",23,9,40.464341,-3.665034
422,"422 - Travesia de Palomeras, 7",http://www.wikidata.org/entity/Q17402113,http://www.wikidata.org/entity/Q1094755,http://www.wikidata.org/entity/Q2807,"422 - Travesia de Palomeras, 7,",24,1,40.39017,-3.670518
423,423 - Estación de tren Asamblea de Madrid,http://www.wikidata.org/entity/Q17402113,http://www.wikidata.org/entity/Q1094755,http://www.wikidata.org/entity/Q2807,"Avenida de Entrevias, 56,",24,11,40.381388,-3.66855
424,"424 - Camino de Valderribas, 47",http://www.wikidata.org/entity/Q17402113,http://www.wikidata.org/entity/Q1094755,http://www.wikidata.org/entity/Q2807,"Camino de Valderribas, 47,",24,17,40.400223,-3.663958
425,425 - Ramón Perez Ayala - Pque. Cerro Tío Pío,http://www.wikidata.org/entity/Q17402113,http://www.wikidata.org/entity/Q1094755,http://www.wikidata.org/entity/Q2807,"Calle Ramón Pérez de Ayala, 45 ,",24,5,40.400035,-3.65381
426,426 - Humanes - Benjamín Palencia,http://www.wikidata.org/entity/Q17402113,http://www.wikidata.org/entity/Q1094755,http://www.wikidata.org/entity/Q2807,"Calle Humanes, 3,",24,18,40.395212,-3.649327
427,"427 - Andaluces, 2",http://www.wikidata.org/entity/Q17402113,http://www.wikidata.org/entity/Q1094755,http://www.wikidata.org/entity/Q2807,"Calle de los Andaluces, 2,",24,13,40.391424,-3.641483
428,428 - Estadio de Vallecas,http://www.wikidata.org/entity/Q17402113,http://www.wikidata.org/entity/Q1094755,http://www.wikidata.org/entity/Q2807,"Avenida La Albufera, 136 ,",24,12,40.3919,-3.6571
393,"393 - Manuel Noya , 29",http://www.wikidata.org/entity/Q17402113,http://www.wikidata.org/entity/Q1094755,http://www.wikidata.org/entity/Q2807,"Calle Manuel Noya, 29 ,",24,18,40.385379,-3.711798
489,489 - Serrano Galvache - Yerma,http://www.wikidata.org/entity/Q17402113,http://www.wikidata.org/entity/Q1094755,http://www.wikidata.org/entity/Q2807,"Serrano Galvache, 56,",24,17,40.476753,-3.671445
490,490 - Hnos.García Noblejas-FcoLargo Caballero,http://www.wikidata.org/entity/Q17402113,http://www.wikidata.org/entity/Q1094755,http://www.wikidata.org/entity/Q2807,"Calle Hermanos García Nobleza (esquina Plaza del Reloj Solar) ,",24,8,40.424275,-3.628881
488,"488 - Ricardo Ortiz, 33",http://www.wikidata.org/entity/Q17402113,http://www.wikidata.org/entity/Q1094755,http://www.wikidata.org/entity/Q2807,"Calle Ricardo Ortiz, 33,",24,6,40.42657,-3.657964
525,525 - Metro Manoteras,http://www.wikidata.org/entity/Q17402113,http://www.wikidata.org/entity/Q1094755,http://www.wikidata.org/entity/Q2807,"Calle Bacares, 20 ,",24,10,40.476755,-3.66269
504,504 - Biblioteca Pública Municipal San Blas,http://www.wikidata.org/entity/Q17402113,http://www.wikidata.org/entity/Q1094755,http://www.wikidata.org/entity/Q2807,"Calle de San Roman del Valle, 20,",24,8,40.423099,-3.623467
503,503 - Zaldívar - Valdecanillas,http://www.wikidata.org/entity/Q17402113,http://www.wikidata.org/entity/Q1094755,http://www.wikidata.org/entity/Q2807,"Calle Zaldivar, 19 ,",24,21,40.43209,-3.626504
404,404 - Junta Municipal Distrito de Villaverde,http://www.wikidata.org/entity/Q17402113,http://www.wikidata.org/entity/Q1094755,http://www.wikidata.org/entity/Q2807,"Calle Arroyo Bueno, 53 ,",27,4,40.349111,-3.710985
353,"353 - Mercedes Arteaga, 21",http://www.wikidata.org/entity/Q17402113,http://www.wikidata.org/entity/Q1094755,http://www.wikidata.org/entity/Q2807,"Calle Mercedes Arteaga, 21,",24,12,40.392516,-3.722218
355,355 - Intercambiador de Plaza Elíptica,http://www.wikidata.org/entity/Q17402113,http://www.wikidata.org/entity/Q1094755,http://www.wikidata.org/entity/Q2807,"Calle de la Vía, 56 ,",24,11,40.385464,-3.718234
326,326 - Metro Alto de Extremadura,http://www.wikidata.org/entity/Q17402113,http://www.wikidata.org/entity/Q1094755,http://www.wikidata.org/entity/Q2807,"Calle Francisco Tejada, 1 ,",24,13,40.40938,-3.739616
327,"327 - El Greco, 27 - C. Cultural El Greco",http://www.wikidata.org/entity/Q17402113,http://www.wikidata.org/entity/Q1094755,http://www.wikidata.org/entity/Q2807,"Calle El Greco, 27 ,",24,4,40.407412,-3.747262
458,458 - Metro Vinateros,http://www.wikidata.org/entity/Q17402113,http://www.wikidata.org/entity/Q1094755,http://www.wikidata.org/entity/Q2807,"Calle del Arroyo Belincoso, 26,",24,8,40.409911,-3.652566
459,459 - Moratalaz,http://www.wikidata.org/entity/Q17402113,http://www.wikidata.org/entity/Q1094755,http://www.wikidata.org/entity/Q2807,"Avenida Moratalaz, 33 ,",24,10,40.407506,-3.660003
461,461 - Plaza Corregidor Ldo. Antonio de Mena,http://www.wikidata.org/entity/Q17402113,http://www.wikidata.org/entity/Q1094755,http://www.wikidata.org/entity/Q2807,"Corregidor licenciado Antonio de Mena, sn,",24,11,40.4099,-3.6408
356,356 - Portalegre - Tinamús,http://www.wikidata.org/entity/Q17402113,http://www.wikidata.org/entity/Q1094755,http://www.wikidata.org/entity/Q2807,"Calle Portalegre, 9 ,",24,22,40.389377,-3.723648
572,572 - Junta Mpal. Dtto. Fuencarral - El Pardo,http://www.wikidata.org/entity/Q17402113,http://www.wikidata.org/entity/Q1094755,http://www.wikidata.org/entity/Q2807,"Avenida Monforte de Lemos, 123,",24,14,40.478104,-3.709973
573,573 - Melchor Fernández Almagro - Villa Marín,http://www.wikidata.org/entity/Q17402113,http://www.wikidata.org/entity/Q1094755,http://www.wikidata.org/entity/Q2807,"Calle Melchor Fernandez Almagro, 16,",24,8,40.477728,-3.699626
575,575 - Metro Barrio del Pilar,http://www.wikidata.org/entity/Q17402113,http://www.wikidata.org/entity/Q1094755,http://www.wikidata.org/entity/Q2807,"Ginzo de Limia, 36,",24,10,40.47817,-3.703526
574,574 - Chantada,http://www.wikidata.org/entity/Q17402113,http://www.wikidata.org/entity/Q1094755,http://www.wikidata.org/entity/Q2807,"Calle Chantada, 14,",24,8,40.472695,-3.710678
440,440 - Metro Villa de Vallecas,http://www.wikidata.org/entity/Q17402113,http://www.wikidata.org/entity/Q1094755,http://www.wikidata.org/entity/Q2807,"Paseo de Federico García Lorca, 2 ,",18,15,40.379503,-3.621447
507,507 - Seis - Sexta,http://www.wikidata.org/entity/Q17402113,http://www.wikidata.org/entity/Q1094755,http://www.wikidata.org/entity/Q2807,"Calle Seis (esquina con Avenida Quinta),",24,2,40.44845,-3.596503
299,299 - Rosario Pino - Joan Maragall,http://www.wikidata.org/entity/Q17402113,http://www.wikidata.org/entity/Q1094755,http://www.wikidata.org/entity/Q2807,"Calle Rosario Pino, 17 ,",24,5,40.46205,-3.691932
300,300 - Capitan Blanco Argibay - Alfalfa,http://www.wikidata.org/entity/Q17402113,http://www.wikidata.org/entity/Q1094755,http://www.wikidata.org/entity/Q2807,"Calle Capitan Blanco Argibay, 112 ,",24,1,40.466743,-3.703188
301,301 - Muller - Capitan Blanco Argibay,http://www.wikidata.org/entity/Q17402113,http://www.wikidata.org/entity/Q1094755,http://www.wikidata.org/entity/Q2807,"Calle Muller, 34 ,",24,1,40.465182,-3.698376
396,"396 - Gran Avenida, 27",http://www.wikidata.org/entity/Q17402113,http://www.wikidata.org/entity/Q1094755,http://www.wikidata.org/entity/Q2807,"Gran Avenida, 27,",24,16,40.369977,-3.707606
394,"394 - Periana, 24",http://www.wikidata.org/entity/Q17402113,http://www.wikidata.org/entity/Q1094755,http://www.wikidata.org/entity/Q2807,"Calle Periana, 24 ,",24,0,40.366723,-3.687658
397,397 - Centro Deportivo Municipal Orcasur,http://www.wikidata.org/entity/Q17402113,http://www.wikidata.org/entity/Q1094755,http://www.wikidata.org/entity/Q2807,"Calle Moreja, 30 ,",24,21,40.368093,-3.69838
399,399 - Bohemios - Gigantes y Cabezudos,http://www.wikidata.org/entity/Q17402113,http://www.wikidata.org/entity/Q1094755,http://www.wikidata.org/entity/Q2807,"Calle Bohemios, 1 ,",24,10,40.356536,-3.693901
430,430 - Torremolinos - Rafael Alberti,http://www.wikidata.org/entity/Q17402113,http://www.wikidata.org/entity/Q1094755,http://www.wikidata.org/entity/Q2807,"Calle Torremolinos, 1 ,",24,9,40.385009,-3.64179
269,"269 - Ariel, 7 - Parque Enrique Tierno Galván",http://www.wikidata.org/entity/Q17402113,http://www.wikidata.org/entity/Q1094755,http://www.wikidata.org/entity/Q2807,"Calle Ariel, 11 ,",24,10,40.393024,-3.679702
491,491 - Esteban Collantes - José Arcones Gil,http://www.wikidata.org/entity/Q17402113,http://www.wikidata.org/entity/Q1094755,http://www.wikidata.org/entity/Q2807,"Calle Esteban Collantes 63,",24,16,40.432883,-3.637663
527,527 - Velacho Alto - Trinquete,http://www.wikidata.org/entity/Q17402113,http://www.wikidata.org/entity/Q1094755,http://www.wikidata.org/entity/Q2807,"Calle Velacho Alto, 4-16 ,",24,6,40.472503,-3.659269
526,526 - Plaza del Liceo,http://www.wikidata.org/entity/Q17402113,http://www.wikidata.org/entity/Q1094755,http://www.wikidata.org/entity/Q2807,"Plaza del Liceo (esquina con Calle Silvano) ,",24,6,40.457544,-3.644419
431,"431 - Puerto Canfranc, 18",http://www.wikidata.org/entity/Q17402113,http://www.wikidata.org/entity/Q1094755,http://www.wikidata.org/entity/Q2807,"Calle Estación de Canfrac, 18 ,",24,13,40.3969,-3.6634
429,429 - Carlos M. Alvarez - Javier de Miguel,http://www.wikidata.org/entity/Q17402113,http://www.wikidata.org/entity/Q1094755,http://www.wikidata.org/entity/Q2807,"Calle Carlos Martín Álvarez, 38 ,",23,9,40.3895,-3.6635
357,357 - Sorbe - Baleares,http://www.wikidata.org/entity/Q17402113,http://www.wikidata.org/entity/Q1094755,http://www.wikidata.org/entity/Q2807,"Calle del Sorbe , 20,",24,9,40.38987,-3.713209
270,270 - Teresa L. Valcárcel - Tte. Cnel. Noreña,http://www.wikidata.org/entity/Q17402113,http://www.wikidata.org/entity/Q1094755,http://www.wikidata.org/entity/Q2807,"Calle Teresa López Valcarcel (esquina calle Teniente Coronel Noreña),",24,9,40.388629,-3.693288
493,493 - Arturo Soria - San Luis,http://www.wikidata.org/entity/Q17402113,http://www.wikidata.org/entity/Q1094755,http://www.wikidata.org/entity/Q2807,"Calle Arturo Soria (esquina con calle Jazmín),",23,10,40.476367,-3.668417
433,"433 - Villalobos, 28",http://www.wikidata.org/entity/Q17402113,http://www.wikidata.org/entity/Q1094755,http://www.wikidata.org/entity/Q2807,"Calle Villalobos, 28 ,",24,14,40.381617,-3.65076
436,436 - Campus Sur UPM,http://www.wikidata.org/entity/Q17402113,http://www.wikidata.org/entity/Q1094755,http://www.wikidata.org/entity/Q2807,"Calle Alan Turing, 2 ,",23,17,40.390167,-3.627137
434,434 - Charleroi - Cocherón de la Villa,http://www.wikidata.org/entity/Q17402113,http://www.wikidata.org/entity/Q1094755,http://www.wikidata.org/entity/Q2807,"Calle Charleroi, 1 ,",24,10,40.381917,-3.632194
506,506 - Albarracín - Julián Camarillo,http://www.wikidata.org/entity/Q17402113,http://www.wikidata.org/entity/Q1094755,http://www.wikidata.org/entity/Q2807,"Calle Albarracin, sn,",24,23,40.433973,-3.632516
505,"505 - Castillo de Uclés, 37",http://www.wikidata.org/entity/Q17402113,http://www.wikidata.org/entity/Q1094755,http://www.wikidata.org/entity/Q2807,"Calle Castillo de Ucles, 37,",24,16,40.431525,-3.623066
435,435 - San Claudio,http://www.wikidata.org/entity/Q17402113,http://www.wikidata.org/entity/Q1094755,http://www.wikidata.org/entity/Q2807,"Calle San Claudio, 150 ,",24,11,40.389029,-3.63954
508-old,508-old - Alcala  (acera de tránsito peatonal),http://www.wikidata.org/entity/Q17402113,http://www.wikidata.org/entity/Q1094755,http://www.wikidata.org/entity/Q2807,"Calle Alcala  (acera de tránsito peatonal),",0,0,40.449104,-3.609601
302,302 - Ps. Dirección B - Pque A. Rguez Sahagún,http://www.wikidata.org/entity/Q17402113,http://www.wikidata.org/entity/Q1094755,http://www.wikidata.org/entity/Q2807,"Paseo de la Dirección, 330, (enfrente) ,",24,1,40.470245,-3.703955
463,"463 - Casalarreina, 18",http://www.wikidata.org/entity/Q17402113,http://www.wikidata.org/entity/Q1094755,http://www.wikidata.org/entity/Q2807,"Calle Casalarreina, 18,",24,11,40.409391,-3.612319
464,464 - Univ. Rey Juan Carlos - Campus Madrid,http://www.wikidata.org/entity/Q17402113,http://www.wikidata.org/entity/Q1094755,http://www.wikidata.org/entity/Q2807,"Avenida de Daroca 321,",24,13,40.40634,-3.612834
400,400 - Metro Ciudad de los Ángeles,http://www.wikidata.org/entity/Q17402113,http://www.wikidata.org/entity/Q1094755,http://www.wikidata.org/entity/Q2807,"Paseo de los Gigantes y Cabezudos, 4,",24,13,40.360647,-3.693997
307,307 - Metro Valdezarza,http://www.wikidata.org/entity/Q17402113,http://www.wikidata.org/entity/Q1094755,http://www.wikidata.org/entity/Q2807,"Calle San Restituto, 74,",24,9,40.46588,-3.71693
303,303 - Ps. Dirección A - Pque A. Rguez Sahagún,http://www.wikidata.org/entity/Q17402113,http://www.wikidata.org/entity/Q1094755,http://www.wikidata.org/entity/Q2807,"Paseo de la Dirección, 161,",24,14,40.467789,-3.708085
576,"576 - El Ferrol, 18",http://www.wikidata.org/entity/Q17402113,http://www.wikidata.org/entity/Q1094755,http://www.wikidata.org/entity/Q2807,"Avenida El Ferrol, 18,",24,4,40.474313,-3.705105
577,577 - Monforte de Lemos - Plaza de Mondariz,http://www.wikidata.org/entity/Q17402113,http://www.wikidata.org/entity/Q1094755,http://www.wikidata.org/entity/Q2807,"Calle Aurora boreal, 19 ,",24,12,40.479,-3.705669
309,309 - Ofelia Nieto - Villaamil,http://www.wikidata.org/entity/Q17402113,http://www.wikidata.org/entity/Q1094755,http://www.wikidata.org/entity/Q2807,"Calle Ofelia Nieto, 75,",24,0,40.462051,-3.708734
308,308 - María Auxiliadora - Francos Rodríguez,http://www.wikidata.org/entity/Q17402113,http://www.wikidata.org/entity/Q1094755,http://www.wikidata.org/entity/Q2807,"Calle María Auxiliadora, 1 ,",24,2,40.457729,-3.713461
510,510 - Metro Avenida de Guadalajara,http://www.wikidata.org/entity/Q17402113,http://www.wikidata.org/entity/Q1094755,http://www.wikidata.org/entity/Q2807,"Avenida de Guadalajara, 101,",24,12,40.42219,-3.613462
511,511 - Aquitania 31,http://www.wikidata.org/entity/Q17402113,http://www.wikidata.org/entity/Q1094755,http://www.wikidata.org/entity/Q2807,"Calle Aquitania, 31,",27,3,40.419123,-3.617267
512,512 - Semilla - Aparejadores,http://www.wikidata.org/entity/Q17402113,http://www.wikidata.org/entity/Q1094755,http://www.wikidata.org/entity/Q2807,"Calle de los Aparejadores, 24,",24,9,40.426679,-3.61537
513,513 - Centro Deportivo Mpal. Pepu Hernández,http://www.wikidata.org/entity/Q17402113,http://www.wikidata.org/entity/Q1094755,http://www.wikidata.org/entity/Q2807,"Avenida de Niza, 9,",27,10,40.427121,-3.606454
514,514 - María Sevilla Diago,http://www.wikidata.org/entity/Q17402113,http://www.wikidata.org/entity/Q1094755,http://www.wikidata.org/entity/Q2807,"Calle Maria Sevilla Diago, 5,",24,3,40.43283,-3.610951
515,"515 - Avenida de Hellin, 13",http://www.wikidata.org/entity/Q17402113,http://www.wikidata.org/entity/Q1094755,http://www.wikidata.org/entity/Q2807,"Avenida de Hellin, 13,",24,9,40.430917,-3.6158
359,359 - El Toboso - Zaida,http://www.wikidata.org/entity/Q17402113,http://www.wikidata.org/entity/Q1094755,http://www.wikidata.org/entity/Q2807,"Calle de El Toboso, 115,",23,11,40.39299,-3.73634
360,360 - Ntra. Sra. Fátima - Ntra. Sra. de Luz,http://www.wikidata.org/entity/Q17402113,http://www.wikidata.org/entity/Q1094755,http://www.wikidata.org/entity/Q2807,"Avenida Nuestra Señora de Fatima, 34,",23,7,40.384015,-3.747088
361,361 - Metro Pan Bendito,http://www.wikidata.org/entity/Q17402113,http://www.wikidata.org/entity/Q1094755,http://www.wikidata.org/entity/Q2807,"Avenida de Abrantes, 106 ,",23,16,40.377347,-3.732667
441,441 - Estación de tren de Santa Eugenia,http://www.wikidata.org/entity/Q17402113,http://www.wikidata.org/entity/Q1094755,http://www.wikidata.org/entity/Q2807,"Avenida Santa Eugenia,1 ,",24,14,40.386008,-3.609482
442,442 - Santa Eugenia - Zazuar,http://www.wikidata.org/entity/Q17402113,http://www.wikidata.org/entity/Q1094755,http://www.wikidata.org/entity/Q2807,"Avenida de Santa Eugenia con Calle sauzal, 1 ,",27,10,40.383059,-3.60463
443,"443 - Fuentespina, 33",http://www.wikidata.org/entity/Q17402113,http://www.wikidata.org/entity/Q1094755,http://www.wikidata.org/entity/Q2807,"Calle Fuentespina, 33,",24,10,40.379415,-3.607248
362,"362 - Hilario Herranz Establos, 36",http://www.wikidata.org/entity/Q17402113,http://www.wikidata.org/entity/Q1094755,http://www.wikidata.org/entity/Q2807,"Calle Hilario Herránz Establos , 36,",27,18,40.372839,-3.726638
557,557 - Metro Alameda de Osuna,http://www.wikidata.org/entity/Q17402113,http://www.wikidata.org/entity/Q1094755,http://www.wikidata.org/entity/Q2807,"Calle Rioja, 13,",24,8,40.457467,-3.588151
290,290 - Francisco Suárez - Paseo de La Habana,http://www.wikidata.org/entity/Q17402113,http://www.wikidata.org/entity/Q1094755,http://www.wikidata.org/entity/Q2807,"Calle Francisco Suárez, 28 ,",23,8,40.464378,-3.679944
529,"529 - Lopez de Hoyos , 478",http://www.wikidata.org/entity/Q17402113,http://www.wikidata.org/entity/Q1094755,http://www.wikidata.org/entity/Q2807,"Calle López de Hoyos, 478,",23,12,40.47175,-3.649843
530,530 - Metro Mar de Cristal,http://www.wikidata.org/entity/Q17402113,http://www.wikidata.org/entity/Q1094755,http://www.wikidata.org/entity/Q2807,"Calle de los Emigrantes, 15,",27,21,40.468575,-3.637883
531,531 - Metro Parque de Santa María,http://www.wikidata.org/entity/Q17402113,http://www.wikidata.org/entity/Q1094755,http://www.wikidata.org/entity/Q2807,"Calle de Santa Virgilia, 6,",23,0,40.476878,-3.645074
533,"533 - San Luis, 23",http://www.wikidata.org/entity/Q17402113,http://www.wikidata.org/entity/Q1094755,http://www.wikidata.org/entity/Q2807,"Avenida de San Luis, 23,",23,3,40.471487,-3.655115
106A,106A - Plaza de Colón A,http://www.wikidata.org/entity/Q17402113,http://www.wikidata.org/entity/Q1094755,http://www.wikidata.org/entity/Q2807,"Calle Serrano nº 32,",19,13,40.424924,-3.687807
582,582 - Isla Graciosa - Isla de Java,http://www.wikidata.org/entity/Q17402113,http://www.wikidata.org/entity/Q1094755,http://www.wikidata.org/entity/Q2807,"Calle de la Isla Graciosa, 2,",24,8,40.492622,-3.686266
583,583 - Ángel Múgica - Marcos de Orueta,http://www.wikidata.org/entity/Q17402113,http://www.wikidata.org/entity/Q1094755,http://www.wikidata.org/entity/Q2807,"Calle de Angel Mugica, 3,",24,19,40.484683,-3.68529
584,584 - Metro Montecarmelo,http://www.wikidata.org/entity/Q17402113,http://www.wikidata.org/entity/Q1094755,http://www.wikidata.org/entity/Q2807,"Avenida Monasterio de Silos, 63A,",24,1,40.50501,-3.696033
585,585 - Metro Fuencarral,http://www.wikidata.org/entity/Q17402113,http://www.wikidata.org/entity/Q1094755,http://www.wikidata.org/entity/Q2807,"Calle Molins de Rey, 8,",24,3,40.495466,-3.693748
586,586 - Caldas Estrach - San Cugat del Vallés,http://www.wikidata.org/entity/Q17402113,http://www.wikidata.org/entity/Q1094755,http://www.wikidata.org/entity/Q2807,"Calle Caldas de Estrach, 14,",23,2,40.496392,-3.697472
534,"534 - Mesena, 102",http://www.wikidata.org/entity/Q17402113,http://www.wikidata.org/entity/Q1094755,http://www.wikidata.org/entity/Q2807,"Calle Mesena, 102 ,",24,5,40.467724,-3.663406
273,273 - Delicias - General Lacy,http://www.wikidata.org/entity/Q17402113,http://www.wikidata.org/entity/Q1094755,http://www.wikidata.org/entity/Q2807,"Calle de las Delicias, 41 ,",19,7,40.403819,-3.690918
587,587 - Metro Paco de Lucía,http://www.wikidata.org/entity/Q17402113,http://www.wikidata.org/entity/Q1094755,http://www.wikidata.org/entity/Q2807,"Calle Costa Brava, 14,",27,26,40.498924,-3.708657
588,588 - Campo Calatrava - Rda Ingenioso Hidalgo,http://www.wikidata.org/entity/Q17402113,http://www.wikidata.org/entity/Q1094755,http://www.wikidata.org/entity/Q2807,"Av. del Campo de Calatrava, 17,",27,2,40.500522,-3.691123
589,589 - Monast. Silos - Monast. Montesclaros,http://www.wikidata.org/entity/Q17402113,http://www.wikidata.org/entity/Q1094755,http://www.wikidata.org/entity/Q2807,"Avenida Monasterio de Silos, 37,",24,24,40.503405,-3.702903
535,535 - Metro Canillas,http://www.wikidata.org/entity/Q17402113,http://www.wikidata.org/entity/Q1094755,http://www.wikidata.org/entity/Q2807,"Calle Ramón Power, 2 ,",27,1,40.463575,-3.634999
328,"328 - Cebreros, 97",http://www.wikidata.org/entity/Q17402113,http://www.wikidata.org/entity/Q1094755,http://www.wikidata.org/entity/Q2807,"Calle de Cebreros, 97 ,",23,3,40.403238,-3.752192
329,329 - Metro Laguna,http://www.wikidata.org/entity/Q17402113,http://www.wikidata.org/entity/Q1094755,http://www.wikidata.org/entity/Q2807,"Calle Alhambra, 56 ,",23,12,40.398816,-3.744452
330,330 - Duquesa de Parcent - Marcelino Castillo,http://www.wikidata.org/entity/Q17402113,http://www.wikidata.org/entity/Q1094755,http://www.wikidata.org/entity/Q2807,"Calle Duquesa de Parcent, 14 ,",23,11,40.395002,-3.744728
331,331 - Valmojado,http://www.wikidata.org/entity/Q17402113,http://www.wikidata.org/entity/Q1094755,http://www.wikidata.org/entity/Q2807,"Calle Valmojado, 33 ,",24,11,40.396496,-3.757572
332,"332 - Los Yébenes, 159",http://www.wikidata.org/entity/Q17402113,http://www.wikidata.org/entity/Q1094755,http://www.wikidata.org/entity/Q2807,"Calle de los Yébenes, 159 ,",23,0,40.393028,-3.751817
363,363 - Metro Oporto,http://www.wikidata.org/entity/Q17402113,http://www.wikidata.org/entity/Q1094755,http://www.wikidata.org/entity/Q2807,"Avenida de Oporto, 102,",23,20,40.387451,-3.729873
364,364 - Metro Opañel,http://www.wikidata.org/entity/Q17402113,http://www.wikidata.org/entity/Q1094755,http://www.wikidata.org/entity/Q2807,"Avenida de Oporto, 34,",23,13,40.385507,-3.723781
536,536 - Boj,http://www.wikidata.org/entity/Q17402113,http://www.wikidata.org/entity/Q1094755,http://www.wikidata.org/entity/Q2807,"Calle de Boj, 4 ,",23,8,40.45602,-3.618082
537,537 - Plaza López de la Plata,http://www.wikidata.org/entity/Q17402113,http://www.wikidata.org/entity/Q1094755,http://www.wikidata.org/entity/Q2807,"Avenida de Machupichu, 23,",27,16,40.458415,-3.625794
538,"538 - Haendel, 8",http://www.wikidata.org/entity/Q17402113,http://www.wikidata.org/entity/Q1094755,http://www.wikidata.org/entity/Q2807,"Calle de Haendel, 8,",27,17,40.462751,-3.625321
333,333 - Illescas - Camarena,http://www.wikidata.org/entity/Q17402113,http://www.wikidata.org/entity/Q1094755,http://www.wikidata.org/entity/Q2807,"Calle Illescas, 104 ,",23,0,40.392175,-3.756232
365,365 - Palacio Vistalegre Arena,http://www.wikidata.org/entity/Q17402113,http://www.wikidata.org/entity/Q1094755,http://www.wikidata.org/entity/Q2807,"Avenida Plaza de Toros, 3 ,",23,15,40.385372,-3.737259
366,366 - Metro Carabanchel,http://www.wikidata.org/entity/Q17402113,http://www.wikidata.org/entity/Q1094755,http://www.wikidata.org/entity/Q2807,"Paseo de Marcelino Camacho, 53 ,",23,23,40.387737,-3.744521
291,291 - Plaza José María Soler,http://www.wikidata.org/entity/Q17402113,http://www.wikidata.org/entity/Q1094755,http://www.wikidata.org/entity/Q2807,"Avenida Alfonso XIII, 113,",23,16,40.458665,-3.667903
292,292 - Centro Deportivo Municipal Pradillo,http://www.wikidata.org/entity/Q17402113,http://www.wikidata.org/entity/Q1094755,http://www.wikidata.org/entity/Q2807,"Calle Pradillo, 33,",23,7,40.449041,-3.671794
494,494 - Metro Pinar de Chamartín,http://www.wikidata.org/entity/Q17402113,http://www.wikidata.org/entity/Q1094755,http://www.wikidata.org/entity/Q2807,"Arturo Soria, 332,",23,7,40.480694,-3.666529
516,516 - Juan Ignacio Luca Tena - Quinta Molinos,http://www.wikidata.org/entity/Q17402113,http://www.wikidata.org/entity/Q1094755,http://www.wikidata.org/entity/Q2807,"Calle Juan Ignacio Luca de Tena, 13 ,",27,21,40.447968,-3.631103
368,368 - Eugenia de Montijo,http://www.wikidata.org/entity/Q17402113,http://www.wikidata.org/entity/Q1094755,http://www.wikidata.org/entity/Q2807,"Calle Eugenia de Montijo, 57 ,",15,14,40.379102,-3.747061
369,369 - Junta Municipal Distrito de Carabanchel,http://www.wikidata.org/entity/Q17402113,http://www.wikidata.org/entity/Q1094755,http://www.wikidata.org/entity/Q2807,"Plaza De la Parroquia, 19 ,",23,4,40.380245,-3.741583
370,370 - Avefría - Plaza de Tarifa,http://www.wikidata.org/entity/Q17402113,http://www.wikidata.org/entity/Q1094755,http://www.wikidata.org/entity/Q2807,"Calle de Avefria, 26,",23,1,40.383869,-3.730802
590,590 - Metro Arroyofresno,http://www.wikidata.org/entity/Q17402113,http://www.wikidata.org/entity/Q1094755,http://www.wikidata.org/entity/Q2807,"Calle Maria de Maeztu, 50,",27,1,40.49093,-3.727572
517,517 - San Mariano - Circe,http://www.wikidata.org/entity/Q17402113,http://www.wikidata.org/entity/Q1094755,http://www.wikidata.org/entity/Q2807,"Calle de San Mariano, 52-60 ,",27,27,40.441753,-3.611905
518,518 - Tampico - Plaza Barbados,http://www.wikidata.org/entity/Q17402113,http://www.wikidata.org/entity/Q1094755,http://www.wikidata.org/entity/Q2807,"Calle Tampico, 71 ,",23,8,40.444569,-3.635345
371,"371 - Joaquin Turina, 49",http://www.wikidata.org/entity/Q17402113,http://www.wikidata.org/entity/Q1094755,http://www.wikidata.org/entity/Q2807,"Calle Joaquin Turina, 49,",27,14,40.372458,-3.76182
372,"372 - Lonja de la Seda, 33",http://www.wikidata.org/entity/Q17402113,http://www.wikidata.org/entity/Q1094755,http://www.wikidata.org/entity/Q2807,"Calle Lonja de la Seda, 33,",23,12,40.366122,-3.761583
373,373 - Metro La Peseta,http://www.wikidata.org/entity/Q17402113,http://www.wikidata.org/entity/Q1094755,http://www.wikidata.org/entity/Q2807,"Calle Salvador Allende, 28 ,",23,11,40.362778,-3.75787
374,374 - Dinero - La Peseta,http://www.wikidata.org/entity/Q17402113,http://www.wikidata.org/entity/Q1094755,http://www.wikidata.org/entity/Q2807,"Calle del Dinero, 38,",27,6,40.362571,-3.750147
375,"375 - Calderilla, 4",http://www.wikidata.org/entity/Q17402113,http://www.wikidata.org/entity/Q1094755,http://www.wikidata.org/entity/Q2807,"Calle Calderilla, 4,",27,19,40.36515,-3.73866
591,591 - Metro Mirasierra,http://www.wikidata.org/entity/Q17402113,http://www.wikidata.org/entity/Q1094755,http://www.wikidata.org/entity/Q2807,"Av.Ventisquero de la Condesa, 37,",19,15,40.491082,-3.716229
592,592 - Estación de tren de Pitis,http://www.wikidata.org/entity/Q17402113,http://www.wikidata.org/entity/Q1094755,http://www.wikidata.org/entity/Q2807,"Calle de Gloria Fuertes, 180,",27,8,40.495697,-3.724953
376,376 - Metro Carpetana,http://www.wikidata.org/entity/Q17402113,http://www.wikidata.org/entity/Q1094755,http://www.wikidata.org/entity/Q2807,"Calle del Pinzón, 111 ,",24,7,40.392292,-3.740544
377,377 - Metro Abrantes,http://www.wikidata.org/entity/Q17402113,http://www.wikidata.org/entity/Q1094755,http://www.wikidata.org/entity/Q2807,"Avenida De Abrantes, 55 ,",23,15,40.380918,-3.727836
539,539 - Mota del Cuervo,http://www.wikidata.org/entity/Q17402113,http://www.wikidata.org/entity/Q1094755,http://www.wikidata.org/entity/Q2807,"Calle Mota del Cuervo, 72 ,",24,13,40.464876,-3.631357
334,334 - Metro Campamento,http://www.wikidata.org/entity/Q17402113,http://www.wikidata.org/entity/Q1094755,http://www.wikidata.org/entity/Q2807,"Calle Seseña, 93 ,",24,10,40.394973,-3.768156
335,"335 - Cardaño, 10",http://www.wikidata.org/entity/Q17402113,http://www.wikidata.org/entity/Q1094755,http://www.wikidata.org/entity/Q2807,"Plaza Patricio, 5 ,",24,18,40.396598,-3.770575
519,"519 - Troya, 11",http://www.wikidata.org/entity/Q17402113,http://www.wikidata.org/entity/Q1094755,http://www.wikidata.org/entity/Q2807,"Calle Troya, 11,",24,16,40.436996,-3.611915
378,"378 - Eugenia de Montijo, 83",http://www.wikidata.org/entity/Q17402113,http://www.wikidata.org/entity/Q1094755,http://www.wikidata.org/entity/Q2807,"Calle Eugenia de Montijo, 83,",24,11,40.375623,-3.750973
379,379 - Antonia Rodríguez Sacristán - Valeriana,http://www.wikidata.org/entity/Q17402113,http://www.wikidata.org/entity/Q1094755,http://www.wikidata.org/entity/Q2807,"Calle Antonia Rodriguez Sacristan, 4,",24,20,40.373138,-3.747657
495,495 - Caleruega,http://www.wikidata.org/entity/Q17402113,http://www.wikidata.org/entity/Q1094755,http://www.wikidata.org/entity/Q2807,"Calle Caleruega, 14 ,",24,13,40.478746,-3.670588
593,593 - Metro Avenida de la Ilustración,http://www.wikidata.org/entity/Q17402113,http://www.wikidata.org/entity/Q1094755,http://www.wikidata.org/entity/Q2807,"Calle Islas Cies, 27,",24,15,40.480274,-3.718691
594,"594 - Calle Pedro Rico, 49",http://www.wikidata.org/entity/Q17402113,http://www.wikidata.org/entity/Q1094755,http://www.wikidata.org/entity/Q2807,"Calle Pedro Rico, 49,",24,5,40.48194,-3.703918
595,595 - Betanzos - Fermín Caballero,http://www.wikidata.org/entity/Q17402113,http://www.wikidata.org/entity/Q1094755,http://www.wikidata.org/entity/Q2807,"Avenida de Betanzos, 68,",24,17,40.481788,-3.713221
596,596 - Metro Lacoma,http://www.wikidata.org/entity/Q17402113,http://www.wikidata.org/entity/Q1094755,http://www.wikidata.org/entity/Q2807,"Calle Ramon Gomez de la Serna, 37,",24,7,40.484328,-3.723826
540,540 - Estación de tren Fuente de la Mora,http://www.wikidata.org/entity/Q17402113,http://www.wikidata.org/entity/Q1094755,http://www.wikidata.org/entity/Q2807,"Calle Dulce Chacón, S/N ,",24,18,40.48456,-3.663648
336,"336 - Calle Oliva de Plasencia, 1",http://www.wikidata.org/entity/Q17402113,http://www.wikidata.org/entity/Q1094755,http://www.wikidata.org/entity/Q2807,"Calle Oliva de Plasencia, 1,",24,4,40.378501,-3.779152
337,337 - Metro Aluche,http://www.wikidata.org/entity/Q17402113,http://www.wikidata.org/entity/Q1094755,http://www.wikidata.org/entity/Q2807,"Calle Valmojado, 295,",18,10,40.386141,-3.760489
338,338 - Guareña - Luis Chamizo,http://www.wikidata.org/entity/Q17402113,http://www.wikidata.org/entity/Q1094755,http://www.wikidata.org/entity/Q2807,"Calle Guareña, 22 ,",18,10,40.386362,-3.765339
339,339 - Estación de tren Las Águilas,http://www.wikidata.org/entity/Q17402113,http://www.wikidata.org/entity/Q1094755,http://www.wikidata.org/entity/Q2807,"Avenida de las Aguilas , 110,",24,19,40.381326,-3.78062
597,"597 - Foresta, 8",http://www.wikidata.org/entity/Q17402113,http://www.wikidata.org/entity/Q1094755,http://www.wikidata.org/entity/Q2807,"Calle de la Foresta nº8,",23,8,40.498533,-3.667777
599,599 - Instalación Deportiva La Cabrera,http://www.wikidata.org/entity/Q17402113,http://www.wikidata.org/entity/Q1094755,http://www.wikidata.org/entity/Q2807,"Calle La Cabrera, sn,",27,13,40.472233,-3.719204
343,343 - Metro Aviación Española,http://www.wikidata.org/entity/Q17402113,http://www.wikidata.org/entity/Q1094755,http://www.wikidata.org/entity/Q2807,"Calle Fuente de Lima, 10,",23,10,40.38359,-3.783393
344,"344 - Ocaña, 103",http://www.wikidata.org/entity/Q17402113,http://www.wikidata.org/entity/Q1094755,http://www.wikidata.org/entity/Q2807,"Calle Ocaña, 103,",23,8,40.385863,-3.75292
313,"313 - Juan XXIII, 24",http://www.wikidata.org/entity/Q17402113,http://www.wikidata.org/entity/Q1094755,http://www.wikidata.org/entity/Q2807,"Paseo de Juan XXIII, 24,",27,26,40.448084,-3.716936
314,314 - Av. Valladolid - Parque de la Bombilla,http://www.wikidata.org/entity/Q17402113,http://www.wikidata.org/entity/Q1094755,http://www.wikidata.org/entity/Q2807,"Avenida Valladolid, 47D ,",27,26,40.42966,-3.73068
315,315 - Caroli,http://www.wikidata.org/entity/Q17402113,http://www.wikidata.org/entity/Q1094755,http://www.wikidata.org/entity/Q2807,"Calle de Caroli, 10,",23,8,40.45862,-3.784627
316,316 - C. Deportivo Mpal. Ciudad De Los Poetas,http://www.wikidata.org/entity/Q17402113,http://www.wikidata.org/entity/Q1094755,http://www.wikidata.org/entity/Q2807,"Calle Antonio Machado, s/n ,",19,5,40.464397,-3.719954
317,"317 - Antonio Machado, 30",http://www.wikidata.org/entity/Q17402113,http://www.wikidata.org/entity/Q1094755,http://www.wikidata.org/entity/Q2807,"Calle Antonio Machado, 30,",27,1,40.46827,-3.719217
345,345 - Fuente del Tiro - Avd. de las Águilas,http://www.wikidata.org/entity/Q17402113,http://www.wikidata.org/entity/Q1094755,http://www.wikidata.org/entity/Q2807,"Calle Fuente del Tiro, 72 ,",24,8,40.383088,-3.7798
449,449 - Metro Congosto,http://www.wikidata.org/entity/Q17402113,http://www.wikidata.org/entity/Q1094755,http://www.wikidata.org/entity/Q2807,"Calle del Pico Chilegua, 3,",24,14,40.372867,-3.618691
450,"450 - Camino de las Hormigueras, 161",http://www.wikidata.org/entity/Q17402113,http://www.wikidata.org/entity/Q1094755,http://www.wikidata.org/entity/Q2807,"Calle Camino de las Hormigueras, 161,",24,13,40.376255,-3.637076
294,294 - Edificio Torres Blancas,http://www.wikidata.org/entity/Q17402113,http://www.wikidata.org/entity/Q1094755,http://www.wikidata.org/entity/Q2807,"Calle Clara del Rey, 17 ,",24,16,40.440944,-3.672339
604,604 - Metro Las Tablas,http://www.wikidata.org/entity/Q17402113,http://www.wikidata.org/entity/Q1094755,http://www.wikidata.org/entity/Q2807,"Avenida del Camino de Santiago, 4,",23,8,40.509104,-3.669552
348,348 - José de Cadalso - Rafael Finat,http://www.wikidata.org/entity/Q17402113,http://www.wikidata.org/entity/Q1094755,http://www.wikidata.org/entity/Q2807,"Calle José de cadalso, 62 ,",27,8,40.379591,-3.770248
438,438 - Biblioteca Pública Luis Martín Santos,http://www.wikidata.org/entity/Q17402113,http://www.wikidata.org/entity/Q1094755,http://www.wikidata.org/entity/Q2807,"Calle Enrique Garcia Alvarez, 5,",27,15,40.380448,-3.614061
451,"451 -  La Granja de San Ildefonso, 14",http://www.wikidata.org/entity/Q17402113,http://www.wikidata.org/entity/Q1094755,http://www.wikidata.org/entity/Q2807,"Calle Granja de San Idelfonso, 14 ,",27,15,40.368134,-3.622831
452,"452 - Las Suertes, 15",http://www.wikidata.org/entity/Q17402113,http://www.wikidata.org/entity/Q1094755,http://www.wikidata.org/entity/Q2807,"Avenida de Las Suertes, 15,",23,3,40.371361,-3.607854
453,453 - Metro La Gavia,http://www.wikidata.org/entity/Q17402113,http://www.wikidata.org/entity/Q1094755,http://www.wikidata.org/entity/Q2807,"Avenida del Ensanche de Vallecas, 9,",27,14,40.37044,-3.61253
454,454 - Gran Vía del Sureste - Las Suertes,http://www.wikidata.org/entity/Q17402113,http://www.wikidata.org/entity/Q1094755,http://www.wikidata.org/entity/Q2807,"Calle Gran Via del Sureste, 22,",27,9,40.36316,-3.589704
267,267 - Paseo de la Chopera - Fernando Poo,http://www.wikidata.org/entity/Q17402113,http://www.wikidata.org/entity/Q1094755,http://www.wikidata.org/entity/Q2807,"Paseo de la Chopera, 31 ,Comunidad de Madrid España",23,7,40.395,-3.7004
391,391 - Junta Municipal Distrito de Usera,http://www.wikidata.org/entity/Q17402113,http://www.wikidata.org/entity/Q1094755,http://www.wikidata.org/entity/Q2807,"Calle Rafaela Ybarra, 22,Comunidad de Madrid España",23,19,40.381703,-3.711296
580,580 - Metro Herrera Oria,http://www.wikidata.org/entity/Q17402113,http://www.wikidata.org/entity/Q1094755,http://www.wikidata.org/entity/Q2807,"c/ Ginzo de Limia, 47,",23,3,40.48337,-3.706904
150,150 - Castellana - Hermanos Pinzón,http://www.wikidata.org/entity/Q17402113,http://www.wikidata.org/entity/Q1094755,http://www.wikidata.org/entity/Q2807,"Paseo de la castellana, 124 ,",23,19,40.4491,-3.6908
157,157 - Plaza de Cuzco,http://www.wikidata.org/entity/Q17402113,http://www.wikidata.org/entity/Q1094755,http://www.wikidata.org/entity/Q2807,"Paseo de la Castellana, 164 ,Comunidad de Madrid España",23,16,40.459137,-3.689415
395,"395 - Guetaria, 84B",http://www.wikidata.org/entity/Q17402113,http://www.wikidata.org/entity/Q1094755,http://www.wikidata.org/entity/Q2807,"Calle Guetaria, 84B,",23,20,40.369168,-3.715691
548,548 - Eduardo Mazón - Guadalajara,http://www.wikidata.org/entity/Q17402113,http://www.wikidata.org/entity/Q1094755,http://www.wikidata.org/entity/Q2807,"Calle Eduardo Mazón, 1 ,",23,15,40.452148,-3.615416
293,293 - Santa Rita - Clara del Rey,http://www.wikidata.org/entity/Q17402113,http://www.wikidata.org/entity/Q1094755,http://www.wikidata.org/entity/Q2807,"Calle Santa Rita, 1 ,",23,1,40.445793,-3.668288
520,520 - Niza - Plaza de Grecia,http://www.wikidata.org/entity/Q17402113,http://www.wikidata.org/entity/Q1094755,http://www.wikidata.org/entity/Q2807,"Av/ de Niza, 67 ,",23,8,40.434281,-3.608116
509,509 - Amposta - Arcos de Jalón,http://www.wikidata.org/entity/Q17402113,http://www.wikidata.org/entity/Q1094755,http://www.wikidata.org/entity/Q2807,"Amposta s/n (esquina Arcos de Jalón),",23,15,40.42219,-3.61865
558,558 - Biblioteca Pública Mpal. Gloria Fuertes,http://www.wikidata.org/entity/Q17402113,http://www.wikidata.org/entity/Q1094755,http://www.wikidata.org/entity/Q2807,"CalleBahía de Cádiz (cruce con Avenida Logroño) ,",23,10,40.461137,-3.593712
561,561 - Plaza Nuestra Señora de Loreto,http://www.wikidata.org/entity/Q17402113,http://www.wikidata.org/entity/Q1094755,http://www.wikidata.org/entity/Q2807,"Calle Cristo del Gran Poder (cruce con calle Alas) ,",23,22,40.472048,-3.585751
562,562 - Tomillar - Tintín y Milú,http://www.wikidata.org/entity/Q17402113,http://www.wikidata.org/entity/Q1094755,http://www.wikidata.org/entity/Q2807,"Calle Tomillar, 18 ,",27,9,40.463099,-3.584415
560,560 - Playa de Zarauz - Playa de la Caleta,http://www.wikidata.org/entity/Q17402113,http://www.wikidata.org/entity/Q1094755,http://www.wikidata.org/entity/Q2807,"Calle playa de Zarauz (esquina con Playa de Caleta) ,",23,18,40.47314,-3.590685
568,568 - IFEMA A,http://www.wikidata.org/entity/Q17402113,http://www.wikidata.org/entity/Q1094755,http://www.wikidata.org/entity/Q2807,"Avenida del Partenón, 6 ,",27,13,40.46328,-3.617834
405,"405 - Paseo Alberto Palacios, 42",http://www.wikidata.org/entity/Q17402113,http://www.wikidata.org/entity/Q1094755,http://www.wikidata.org/entity/Q2807,"Paseo Alberto Palacios, 42,",23,12,40.344926,-3.712904
401,401 - Estación de tren de Villaverde Bajo,http://www.wikidata.org/entity/Q17402113,http://www.wikidata.org/entity/Q1094755,http://www.wikidata.org/entity/Q2807,"Calle Eduardo Maristany, 7,",27,18,40.353285,-3.683127
406,406 - La Nave de Madrid,http://www.wikidata.org/entity/Q17402113,http://www.wikidata.org/entity/Q1094755,http://www.wikidata.org/entity/Q2807,"Calle Cifuentes, 5,",23,17,40.3486,-3.696082
403,"403 - Auñón, 16",http://www.wikidata.org/entity/Q17402113,http://www.wikidata.org/entity/Q1094755,http://www.wikidata.org/entity/Q2807,"Calle Auñón, 16,",23,5,40.350494,-3.677524
280,280 - Ps de los Melancólicos - San Epifanio,http://www.wikidata.org/entity/Q17402113,http://www.wikidata.org/entity/Q1094755,http://www.wikidata.org/entity/Q2807,"Paseo de los Melancólicos, 73 ,",23,18,40.401782,-3.718569
367,367 - Metro San Francisco,http://www.wikidata.org/entity/Q17402113,http://www.wikidata.org/entity/Q1094755,http://www.wikidata.org/entity/Q2807,"Calle Albox, 35 ,",23,10,40.373972,-3.73984
325,325 - Ps. Jesuitas - Pza. Cerro Bermejo,http://www.wikidata.org/entity/Q17402113,http://www.wikidata.org/entity/Q1094755,http://www.wikidata.org/entity/Q2807,"Paseo de los Jesuitas, 4 ,",23,11,40.410692,-3.730554
578,578 - Sierra de Atapuerca - Viloria de Rioja,http://www.wikidata.org/entity/Q17402113,http://www.wikidata.org/entity/Q1094755,http://www.wikidata.org/entity/Q2807,"Calle Sierra de Atapuerca, 19,",23,3,40.50293,-3.670425
446,446 - C. Deportivo Mpal. Miguel Guillén Prim,http://www.wikidata.org/entity/Q17402113,http://www.wikidata.org/entity/Q1094755,http://www.wikidata.org/entity/Q2807,"Calle Puerto de Porzuna, 34,",23,21,40.373826,-3.62363
382,"382 -Parque Eugenia de Montijo, 2",http://www.wikidata.org/entity/Q17402113,http://www.wikidata.org/entity/Q1094755,http://www.wikidata.org/entity/Q2807,"Parque Eugenia de Montijo, 2,",24,15,40.37835,-3.754582
410,410 - Est. de tren de S. Cristóbal Industrial,http://www.wikidata.org/entity/Q17402113,http://www.wikidata.org/entity/Q1094755,http://www.wikidata.org/entity/Q2807,"Calle transversal sexta (enfrente del colegio Villamadrid),",24,9,40.332546,-3.699266
319,319 - Valdesangil,http://www.wikidata.org/entity/Q17402113,http://www.wikidata.org/entity/Q1094755,http://www.wikidata.org/entity/Q2807,"Calle Valdesangil, 34 ,",24,12,40.468422,-3.716673
579,579 - Maria Tubau - Isabel Colbrand,http://www.wikidata.org/entity/Q17402113,http://www.wikidata.org/entity/Q1094755,http://www.wikidata.org/entity/Q2807,"Calle María Tubau, 3 ,",24,20,40.513992,-3.671704
602,602 - Monasterio Sobrado - Monasterio Silos,http://www.wikidata.org/entity/Q17402113,http://www.wikidata.org/entity/Q1094755,http://www.wikidata.org/entity/Q2807,"Calle del Monasterio de Sobrado, nº6,",24,9,40.509323,-3.692837
600,600 - Centro Deportivo Municipal La Masó,http://www.wikidata.org/entity/Q17402113,http://www.wikidata.org/entity/Q1094755,http://www.wikidata.org/entity/Q2807,"Calle Ubeda esquina Plaza Virgen de la capilla ,",24,1,40.482551,-3.714957
566,566 - Avenida de Logroño,http://www.wikidata.org/entity/Q17402113,http://www.wikidata.org/entity/Q1094755,http://www.wikidata.org/entity/Q2807,"Avenida de Logroño, 112 ,",24,18,40.470347,-3.581503
565,565 - Metro Barajas,http://www.wikidata.org/entity/Q17402113,http://www.wikidata.org/entity/Q1094755,http://www.wikidata.org/entity/Q2807,"Calle Playa de Riazor, 65 ,",24,13,40.475636,-3.583887
467,467 - Univ. Rey Juan Carlos - Facultad  CJS,http://www.wikidata.org/entity/Q17402113,http://www.wikidata.org/entity/Q1094755,http://www.wikidata.org/entity/Q2807,"467 -  Calle Villardondiego  nº32,",24,6,40.406236,-3.608489
469,469 - C. Deportivo Mpal Faustina Valladolid,http://www.wikidata.org/entity/Q17402113,http://www.wikidata.org/entity/Q1094755,http://www.wikidata.org/entity/Q2807,"469 - Ladera de los Almendros, 6,",24,14,40.40343,-3.62299
470,470 - Avenida Real - Galeote,http://www.wikidata.org/entity/Q17402113,http://www.wikidata.org/entity/Q1094755,http://www.wikidata.org/entity/Q2807,"Avenida Real, 3,",18,8,40.402152,-3.606367
471,471 - Molino Viejo - Minerva,http://www.wikidata.org/entity/Q17402113,http://www.wikidata.org/entity/Q1094755,http://www.wikidata.org/entity/Q2807,"Calle Molino Viejo frente , 14,",18,0,40.396301,-3.60666
271,271 - Amaltea-Meneses,http://www.wikidata.org/entity/Q17402113,http://www.wikidata.org/entity/Q1094755,http://www.wikidata.org/entity/Q2807,"Calle Amaltea, 1 ,",24,16,40.394706,-3.68317
466,466 - Villablanca - Vereda del Pinar,http://www.wikidata.org/entity/Q17402113,http://www.wikidata.org/entity/Q1094755,http://www.wikidata.org/entity/Q2807,"Calle Villablanca 7,",23,15,40.408947,-3.607833
275,"275 - Juan Antonio Vallejo-Nájera Botas, 25",http://www.wikidata.org/entity/Q17402113,http://www.wikidata.org/entity/Q1094755,http://www.wikidata.org/entity/Q2807,"Paseo Juan Antonio Vallejo-Nájera Botas, 25 ,",23,8,40.402054,-3.708212
475,475 - Aurora Boreal - Minerva,http://www.wikidata.org/entity/Q17402113,http://www.wikidata.org/entity/Q1094755,http://www.wikidata.org/entity/Q2807,"Avenida de la Aurora Boreal, 19,",23,4,40.399236,-3.603668
274,274 - Estación Sur Méndez Álvaro A,http://www.wikidata.org/entity/Q17402113,http://www.wikidata.org/entity/Q1094755,http://www.wikidata.org/entity/Q2807,"Calle Méndez Álvaro, 73 ,",23,19,40.396758,-3.681343
605,605 - Nuria - Peña Sirio,http://www.wikidata.org/entity/Q17402113,http://www.wikidata.org/entity/Q1094755,http://www.wikidata.org/entity/Q2807,"Calle Nuria nº24,",24,15,40.491644,-3.704883
522,522 - Metro Estadio Metropolitano,http://www.wikidata.org/entity/Q17402113,http://www.wikidata.org/entity/Q1094755,http://www.wikidata.org/entity/Q2807,"Avenida Arcentales (frente Estadio Metropolitano),",24,8,40.433333,-3.600975
521,521 - Metro Las Rosas,http://www.wikidata.org/entity/Q17402113,http://www.wikidata.org/entity/Q1094755,http://www.wikidata.org/entity/Q2807,"Calle Ginebra (esquina con Suecia),",24,10,40.423893,-3.604818
508,508 - Metro Canillejas,http://www.wikidata.org/entity/Q17402113,http://www.wikidata.org/entity/Q1094755,http://www.wikidata.org/entity/Q2807,"Intercambiador de Canillejas,",24,16,40.449095,-3.609553
80A,80A - Estación de Atocha A,http://www.wikidata.org/entity/Q17402113,http://www.wikidata.org/entity/Q1094755,http://www.wikidata.org/entity/Q2807,"Avenida Ciudad de Barcelona (esquina con Plaza de Carlos V),",23,5,40.407573,-3.690538
80B,80B - Estación de Atocha B,http://www.wikidata.org/entity/Q17402113,http://www.wikidata.org/entity/Q1094755,http://www.wikidata.org/entity/Q2807,"Avenida Ciudad de Barcelona (esquina con Plaza de Carlos V),",27,20,40.407521,-3.690475
447,447 - Adolfo Bioy Casares - Las Suertes,http://www.wikidata.org/entity/Q17402113,http://www.wikidata.org/entity/Q1094755,http://www.wikidata.org/entity/Q2807,"Calle Adolfo Bioy Casares, 3 ,",27,19,40.36685,-3.598193
412,412 - Estación de tren de Puente de Alcocer,http://www.wikidata.org/entity/Q17402113,http://www.wikidata.org/entity/Q1094755,http://www.wikidata.org/entity/Q2807,"Calle San Jenaro, 1,",24,13,40.350029,-3.704308
415,415 - Diamante - Delmira Agustini,http://www.wikidata.org/entity/Q17402113,http://www.wikidata.org/entity/Q1094755,http://www.wikidata.org/entity/Q2807,"Calle Diamante, 10 ,",24,7,40.353261,-3.687753
413,413 - Doctor Martín Arévalo,http://www.wikidata.org/entity/Q17402113,http://www.wikidata.org/entity/Q1094755,http://www.wikidata.org/entity/Q2807,"Calle Doctor Martín Arévalo enfrente del N°16 ,",24,14,40.345928,-3.707413
545,"545 - Zapatoca, 8",http://www.wikidata.org/entity/Q17402113,http://www.wikidata.org/entity/Q1094755,http://www.wikidata.org/entity/Q2807,"Calle Zapatoca, 8,",23,15,40.472852,-3.633358
567,567 - Plaza Mayor de Barajas,http://www.wikidata.org/entity/Q17402113,http://www.wikidata.org/entity/Q1094755,http://www.wikidata.org/entity/Q2807,"Plaza Mayor de Barajas, 24,",24,10,40.473325,-3.577654
563,563 - Soto Hidalgo,http://www.wikidata.org/entity/Q17402113,http://www.wikidata.org/entity/Q1094755,http://www.wikidata.org/entity/Q2807,"Calle soto Hidalgo, 3 ,",27,26,40.460647,-3.582075
281,281 - Reina Cristina - Julián Gayarre,http://www.wikidata.org/entity/Q17402113,http://www.wikidata.org/entity/Q1094755,http://www.wikidata.org/entity/Q2807,"Paseo de Reina Cristina, 6 ,",23,17,40.406725,-3.683186
609,609 - Metro Ronda de la Comunicación,http://www.wikidata.org/entity/Q17402113,http://www.wikidata.org/entity/Q1094755,http://www.wikidata.org/entity/Q2807,"Ronda de la Comunicación, s/n,",23,7,40.51572,-3.662689
408,408 - Metro San Cristóbal,http://www.wikidata.org/entity/Q17402113,http://www.wikidata.org/entity/Q1094755,http://www.wikidata.org/entity/Q2807,"Calle de Moncada, 102 ,",23,10,40.341725,-3.692444
409,"409 - Eduardo Barreiros, 114",http://www.wikidata.org/entity/Q17402113,http://www.wikidata.org/entity/Q1094755,http://www.wikidata.org/entity/Q2807,"Calle Eduardo Barreiros, 114,",23,9,40.35535,-3.704644
606,606 - Fermín Caballero - Sangenjo,http://www.wikidata.org/entity/Q17402113,http://www.wikidata.org/entity/Q1094755,http://www.wikidata.org/entity/Q2807,"Calle Fermín Caballero 2,",23,8,40.487363,-3.698485
349,349 - Huerta de Castañeda 26,http://www.wikidata.org/entity/Q17402113,http://www.wikidata.org/entity/Q1094755,http://www.wikidata.org/entity/Q2807,"Calle Huerta de Catañeda, 26 ,",24,8,40.406221,-3.742019
544,544 - Gregorio Sánchez Herráez 14,http://www.wikidata.org/entity/Q17402113,http://www.wikidata.org/entity/Q1094755,http://www.wikidata.org/entity/Q2807,"calle Gregorio Sánchez Herráez 14,",23,7,40.477248,-3.63657
551,551 - Oña,http://www.wikidata.org/entity/Q17402113,http://www.wikidata.org/entity/Q1094755,http://www.wikidata.org/entity/Q2807,"Calle Oña s/n,",23,12,40.489187,-3.665856
552,552 - Ana de Austria - Ignacio Aldecoa,http://www.wikidata.org/entity/Q17402113,http://www.wikidata.org/entity/Q1094755,http://www.wikidata.org/entity/Q2807,"Calle Ana de Austria, 52 ,",27,5,40.499439,-3.65315
542,542 - Estación de tren de Valdebebas,http://www.wikidata.org/entity/Q17402113,http://www.wikidata.org/entity/Q1094755,http://www.wikidata.org/entity/Q2807,"Avenida Fuerzas Armadas (Renfe Valdebebas) ,",24,10,40.481996,-3.615718
320,320 - Metro Lago,http://www.wikidata.org/entity/Q17402113,http://www.wikidata.org/entity/Q1094755,http://www.wikidata.org/entity/Q2807,"Paseo de la Puerta del Ángel, 10 ,",19,8,40.416779,-3.734525
608,608 - Estella - Camino de Santiago,http://www.wikidata.org/entity/Q17402113,http://www.wikidata.org/entity/Q1094755,http://www.wikidata.org/entity/Q2807,"Calle Estella, 21,",23,19,40.49682,-3.674357
278,278 - Paseo los Pontones - Ps. Melancólicos,http://www.wikidata.org/entity/Q17402113,http://www.wikidata.org/entity/Q1094755,http://www.wikidata.org/entity/Q2807,"Paseo de los Pontones, 26 ,",23,2,40.404043,-3.7196
289,289 - Luis de Salazar - Padre Claret,http://www.wikidata.org/entity/Q17402113,http://www.wikidata.org/entity/Q1094755,http://www.wikidata.org/entity/Q2807,"Calle luis de Salazar, 16 ,",23,1,40.447417,-3.664926
547,547 - Rafaela Aparicio - Maruja Mallo,http://www.wikidata.org/entity/Q17402113,http://www.wikidata.org/entity/Q1094755,http://www.wikidata.org/entity/Q2807,"Calle Rafaela Aparicio, 1 ,",27,12,40.47924,-3.631218
402,"402 - Berrocal, 9",http://www.wikidata.org/entity/Q17402113,http://www.wikidata.org/entity/Q1094755,http://www.wikidata.org/entity/Q2807,"Calle de Berrocal, 9 ,",27,2,40.344115,-3.67615
543,543 - Tomas Redondo,http://www.wikidata.org/entity/Q17402113,http://www.wikidata.org/entity/Q1094755,http://www.wikidata.org/entity/Q2807,"Calle Tomás Redondo, 9 ,",23,11,40.471784,-3.629138
277,277 - Virgen del Puerto,http://www.wikidata.org/entity/Q17402113,http://www.wikidata.org/entity/Q1094755,http://www.wikidata.org/entity/Q2807,"Paseo Virgen del Puerto, 27 ,",15,1,40.411622,-3.721178
272,272 - Tejo - Parque La Ronda,http://www.wikidata.org/entity/Q17402113,http://www.wikidata.org/entity/Q1094755,http://www.wikidata.org/entity/Q2807,"Calle del Tejo, 22 ,",23,18,40.39663,-3.679186
282,282 - Parque Retiro - Puerta Reina Mercedes,http://www.wikidata.org/entity/Q17402113,http://www.wikidata.org/entity/Q1094755,http://www.wikidata.org/entity/Q2807,"Avenida Menéndez Pelayo enfrente del nº33 ,",23,17,40.418133,-3.67878
1,1 - Metro Sol,http://www.wikidata.org/entity/Q17402113,http://www.wikidata.org/entity/Q1094755,http://www.wikidata.org/entity/Q2807,"Calle Mayor , 6,",23,16,40.416465,-3.70541
263,263 - Gran Vía de San Francisco,http://www.wikidata.org/entity/Q17402113,http://www.wikidata.org/entity/Q1094755,http://www.wikidata.org/entity/Q2807,"Avenida Gran Vía de San Francisco, 6,",23,8,40.408339,-3.712793
559,"559 - Calle Babilonia, 19",http://www.wikidata.org/entity/Q17402113,http://www.wikidata.org/entity/Q1094755,http://www.wikidata.org/entity/Q2807,"Calle Babilonia, 19,",23,18,40.46753,-3.588235
581,581 - Metro Peñagrande,http://www.wikidata.org/entity/Q17402113,http://www.wikidata.org/entity/Q1094755,http://www.wikidata.org/entity/Q2807,"Camino de Ganapanes, 32-40 ,",24,6,40.47648,-3.716309
598,598 - Hospital Ramón y Cajal,http://www.wikidata.org/entity/Q17402113,http://www.wikidata.org/entity/Q1094755,http://www.wikidata.org/entity/Q2807,"Calle San Modesto, 44,",24,6,40.485801,-3.69234
341,341 - Escalona - Seseña,http://www.wikidata.org/entity/Q17402113,http://www.wikidata.org/entity/Q1094755,http://www.wikidata.org/entity/Q2807,"Calle Escalona, 2,",27,0,40.398346,-3.761823
346,346 - Metro Empalme,http://www.wikidata.org/entity/Q17402113,http://www.wikidata.org/entity/Q1094755,http://www.wikidata.org/entity/Q2807,"Calle de Tembleque, 31 ,",24,4,40.390744,-3.766484
347,347 - Est. tren Mtra Justa Freire-Poli Aluche,http://www.wikidata.org/entity/Q17402113,http://www.wikidata.org/entity/Q1094755,http://www.wikidata.org/entity/Q2807,"Avenida de las Aguilas, 27 ,",24,16,40.383554,-3.768603
528,528 - Albelda - Torrelaguna,http://www.wikidata.org/entity/Q17402113,http://www.wikidata.org/entity/Q1094755,http://www.wikidata.org/entity/Q2807,"Calle Albelda, 6,",24,24,40.449422,-3.657367
312,312 - Metro Batán,http://www.wikidata.org/entity/Q17402113,http://www.wikidata.org/entity/Q1094755,http://www.wikidata.org/entity/Q2807,"Paseo de la Venta, 1,",27,17,40.40775,-3.752856
321,321 - Metro Casa de Campo,http://www.wikidata.org/entity/Q17402113,http://www.wikidata.org/entity/Q1094755,http://www.wikidata.org/entity/Q2807,"Carretera del zoo s/n (metro Casa de Campo) ,",27,13,40.40316,-3.761051
310,310 - Estación de tren de Aravaca,http://www.wikidata.org/entity/Q17402113,http://www.wikidata.org/entity/Q1094755,http://www.wikidata.org/entity/Q2807,"Calle Rosas de Aravaca, s/n ,",23,18,40.449051,-3.784554
311,311 - C. Universitaria - F. Geografía e Histo,http://www.wikidata.org/entity/Q17402113,http://www.wikidata.org/entity/Q1094755,http://www.wikidata.org/entity/Q2807,"Calle Profesor Aranguren, 1 ,",27,25,40.448553,-3.733574
283,283 - Museo Nacional del Prado,http://www.wikidata.org/entity/Q17402113,http://www.wikidata.org/entity/Q1094755,http://www.wikidata.org/entity/Q2807,"Calle Felipe IV, 5 ,",23,17,40.415208,-3.691906
564,564 - IFEMA B,http://www.wikidata.org/entity/Q17402113,http://www.wikidata.org/entity/Q1094755,http://www.wikidata.org/entity/Q2807,"Avenida Del Partenón, 18 ,",23,7,40.463861,-3.613867
468,468 - Caños de San Pedro - San Cipriano,http://www.wikidata.org/entity/Q17402113,http://www.wikidata.org/entity/Q1094755,http://www.wikidata.org/entity/Q2807,"Calle Caños de San Pedro, 12,",23,10,40.402998,-3.60192
465,465 - Cordel de Pavones - Bulevar José Prat,http://www.wikidata.org/entity/Q17402113,http://www.wikidata.org/entity/Q1094755,http://www.wikidata.org/entity/Q2807,"465 - Cordel de Pavones, 48,",24,15,40.397375,-3.619645
414,414 - Metro Villaverde Bajo-Cruce,http://www.wikidata.org/entity/Q17402113,http://www.wikidata.org/entity/Q1094755,http://www.wikidata.org/entity/Q2807,"Calle Santa Petronila, 7 ,",24,4,40.350985,-3.692163
380,380 - Oca,http://www.wikidata.org/entity/Q17402113,http://www.wikidata.org/entity/Q1094755,http://www.wikidata.org/entity/Q2807,"Calle de la Oca, 22 ,",24,14,40.389433,-3.733549
411,411 - Estación de tren de Villaverde Alto,http://www.wikidata.org/entity/Q17402113,http://www.wikidata.org/entity/Q1094755,http://www.wikidata.org/entity/Q2807,"Calle Domingo Párraga, 38 ,",23,11,40.341753,-3.711818
354,354 - Jacinto Verdaguer - Lola de Membrives,http://www.wikidata.org/entity/Q17402113,http://www.wikidata.org/entity/Q1094755,http://www.wikidata.org/entity/Q2807,"Calle Jacinto Verdaguer, 12 ,",24,5,40.395939,-3.716053
318,318 - C. Deportivo Mpal. José María Cagigal,http://www.wikidata.org/entity/Q17402113,http://www.wikidata.org/entity/Q1094755,http://www.wikidata.org/entity/Q2807,"Calle Santa Pola, 22 ,",23,21,40.432051,-3.737028
549,549 - Francisco Pi y Maragall,http://www.wikidata.org/entity/Q17402113,http://www.wikidata.org/entity/Q1094755,http://www.wikidata.org/entity/Q2807,"Avenida Francisco Pi y Margall, 29 ,",19,2,40.486635,-3.650354
279,"279 - Paseo de los Melancólicos, 1",http://www.wikidata.org/entity/Q17402113,http://www.wikidata.org/entity/Q1094755,http://www.wikidata.org/entity/Q2807,"Paseo de los Melancólicos, 1 ,",23,10,40.410445,-3.718482
407,"407 - Carmen de Burgos, 4",http://www.wikidata.org/entity/Q17402113,http://www.wikidata.org/entity/Q1094755,http://www.wikidata.org/entity/Q2807,"Calle Carmen de Burgos, 4,",23,7,40.357546,-3.684788
276,"276 - Paseo de las Yeserías, 15",http://www.wikidata.org/entity/Q17402113,http://www.wikidata.org/entity/Q1094755,http://www.wikidata.org/entity/Q2807,"Paseo de las Yeserías, 15,",23,12,40.399005,-3.709917
340,340 - Illescas - Seseña,http://www.wikidata.org/entity/Q17402113,http://www.wikidata.org/entity/Q1094755,http://www.wikidata.org/entity/Q2807,"Calle Illescas, 1 ,",27,21,40.397098,-3.765698
342,342 - Osa de la Vega - Rafael Finat,http://www.wikidata.org/entity/Q17402113,http://www.wikidata.org/entity/Q1094755,http://www.wikidata.org/entity/Q2807,"Calle Osa de la Vega, 1 ,",23,3,40.374979,-3.773381
381,381 - Alfredo Aleix - Mercedes Rodríguez,http://www.wikidata.org/entity/Q17402113,http://www.wikidata.org/entity/Q1094755,http://www.wikidata.org/entity/Q2807,"Calle Alfredo Aleix, 9 ,",24,8,40.368477,-3.755392
444,"444 - Valderrebollo, 18",http://www.wikidata.org/entity/Q17402113,http://www.wikidata.org/entity/Q1094755,http://www.wikidata.org/entity/Q2807,"Calle Valderrebollo, 18 ,",23,22,40.374348,-3.627635
448,448 - Metro Las Suertes,http://www.wikidata.org/entity/Q17402113,http://www.wikidata.org/entity/Q1094755,http://www.wikidata.org/entity/Q2807,"Avenida Del Ensanche de Vallecas, 80 ,",27,14,40.363376,-3.599352
472,472 - Metro Valdebernardo,http://www.wikidata.org/entity/Q17402113,http://www.wikidata.org/entity/Q1094755,http://www.wikidata.org/entity/Q2807,"Calle de los Pinillas, 19,",27,4,40.398797,-3.621148
473,473 - Villablanca - Parque Forestal Vicálvaro,http://www.wikidata.org/entity/Q17402113,http://www.wikidata.org/entity/Q1094755,http://www.wikidata.org/entity/Q2807,"Calle Villa Blanca, 85 ,",27,21,40.405,-3.59888
474,474 - Estación de tren de Vicálvaro,http://www.wikidata.org/entity/Q17402113,http://www.wikidata.org/entity/Q1094755,http://www.wikidata.org/entity/Q2807,"Calle San Cipriano, 71 ,",27,10,40.402255,-3.596875
541,541 - Metro Pinar del Rey,http://www.wikidata.org/entity/Q17402113,http://www.wikidata.org/entity/Q1094755,http://www.wikidata.org/entity/Q2807,"Avenida Gran Vía de Hortaleza, 68 ,",23,8,40.468271,-3.646859
546,546 - Andorra - Canillas,http://www.wikidata.org/entity/Q17402113,http://www.wikidata.org/entity/Q1094755,http://www.wikidata.org/entity/Q2807,"Calle Andorra, 2 ,",23,5,40.462898,-3.646752
550,"550 - Príncipe Carlos, 54",http://www.wikidata.org/entity/Q17402113,http://www.wikidata.org/entity/Q1094755,http://www.wikidata.org/entity/Q2807,"Calle del Príncipe Carlos, 54 ,",23,2,40.494111,-3.656674
553,553 - María Portugal - Niceto Alcalá Zamora,http://www.wikidata.org/entity/Q17402113,http://www.wikidata.org/entity/Q1094755,http://www.wikidata.org/entity/Q2807,"Calle María de Portugal, 44 ,",23,11,40.499909,-3.658921
601,601 - Estación de tren de Fuencarral,http://www.wikidata.org/entity/Q17402113,http://www.wikidata.org/entity/Q1094755,http://www.wikidata.org/entity/Q2807,"Calle Antonio de Cabezón, s/n (Estacion Cercanías Fuencarral),",23,3,40.501559,-3.682469
603,"603 - Castiello de Jaca, 14",http://www.wikidata.org/entity/Q17402113,http://www.wikidata.org/entity/Q1094755,http://www.wikidata.org/entity/Q2807,"Calle Castiello de Jaca, nº14 ,",23,0,40.509198,-3.678203
607,607 - Metro Ligero - Palas de Rey,http://www.wikidata.org/entity/Q17402113,http://www.wikidata.org/entity/Q1094755,http://www.wikidata.org/entity/Q2807,"Calle Valcarlos, nº20 ,Comunidad de Madrid España",27,21,40.505192,-3.664157
610,610 - Bardegueral,http://www.wikidata.org/entity/Q17402113,http://www.wikidata.org/entity/Q1094755,http://www.wikidata.org/entity/Q2807,"Bardegueral nº16,Comunidad de Madrid España",23,7,40.450172,-3.77191
237,237 - Acueducto de Amaniel,http://www.wikidata.org/entity/Q17402113,http://www.wikidata.org/entity/Q1094755,http://www.wikidata.org/entity/Q2807,"Calle Francisco Balseiro, 2 ,Comunidad de Madrid España",24,0,40.451682,-3.710274
262,262 - María de las Mercedes de Borbón B,http://www.wikidata.org/entity/Q17402113,http://www.wikidata.org/entity/Q1094755,http://www.wikidata.org/entity/Q2807,"Calle María de las Mercedes de Borbón, 214,",23,9,40.492868,-3.620114
611,611 - María de las Mercedes de Borbón A,http://www.wikidata.org/entity/Q17402113,http://www.wikidata.org/entity/Q1094755,http://www.wikidata.org/entity/Q2807,"Calle María de las Mercedes de Borbón, 98,",23,2,40.490908,-3.612107
176,176 - Plaza de la Beata María Ana de Jesús,http://www.wikidata.org/entity/Q17402113,http://www.wikidata.org/entity/Q1094755,http://www.wikidata.org/entity/Q2807,"Calle Alicante, nº3 ,",0,0,40.394186,-3.693941
